BUSINESSNAME,ISSDTTM,EXPDTTM,LICCAT,LICCATDESC,CAPACITY,STNO,Address,Location,Lat,Long,geometry
"SPEAK EASY CONCEPTS, LLC",11/27/2013 12:00:00 AM,12/31/2016 12:00:00 AM,GOPAL,GOP All Alc.,520,25,  Boylston PL,"(42.351899, -71.065829)",42.31624823260227,-71.10262693843245,POINT (-71.10262693843245 42.31624823260227)
"FROST GROUP, LLC",11/20/2013 12:00:00 AM,12/31/2016 12:00:00 AM,GOPAL,GOP All Alc.,240,200,  State ST,"(42.36003, -71.05319)",42.359488,-71.053154,POINT (-71.05315400000001 42.359488)
"EMANUEL ENTERPRISES, LLC",10/01/2013 12:00:00 AM,12/31/2016 12:00:00 AM,GOPMWL,GOP Malt Wine Liq.,49,71, Meridian St,"(42.37195, -71.0388)",42.37196255,-71.03880522704439,POINT (-71.03880522704439 42.37196255)
25 CHARLES ON THE HILL LLC,11/20/2013 12:00:00 AM,12/31/2016 12:00:00 AM,INNAL,Inn. All Alc.,0,19,  Charles ST,"(42.356811, -71.069554)",42.35681295,-71.06956223915162,POINT (-71.06956223915162 42.35681295)
"SUYA JOINT, LLC",09/18/2015 12:00:00 AM,12/31/2016 12:00:00 AM,CV7ALN,CV7ALN - Neighborhood Restricted,84,185,  Dudley ST,"(42.32832, -71.08196)",42.3284645,-71.0821485,POINT (-71.0821485 42.3284645)
"GOURMET CHINA, INC.",11/25/2013 12:00:00 AM,12/31/2016 12:00:00 AM,CV7MW,CV7 Malt Wine,48,23, Tyler St,"(42.350769, -71.060935)",42.24623370000001,-71.12499364722144,POINT (-71.12499364722144 42.24623370000001)
THE TWELVE BENS,11/29/2013 12:00:00 AM,12/31/2016 12:00:00 AM,CV7AL,CV7 All Alc.,285,315,  Adams ST,"(42.298605, -71.057578)",42.298611,-71.057467,POINT (-71.057467 42.298611)
"HLC GROUP ENTERPRISES, LLC",11/15/2013 12:00:00 AM,12/31/2016 12:00:00 AM,CV7AL,CV7 All Alc.,148,131, Dartmouth St,"(42.34682, -71.07543)",42.3467104,-71.0753958,POINT (-71.0753958 42.3467104)
"THE NEXT PLACE, LLC",11/29/2013 12:00:00 AM,12/31/2016 12:00:00 AM,CV7AL,CV7 All Alc.,440,262,  Friend ST,"(42.36457, -71.06144)",42.36465214285714,-71.06137916326531,POINT (-71.06137916326531 42.36465214285714)
"MASSACHUSETTS SPORTSERVICE, INC.",11/27/2013 12:00:00 AM,12/31/2016 12:00:00 AM,CV7AL,CV7 All Alc.,19058,100,  Legends WY,"(42.36629, -71.0622)",42.36628985,-71.06222575726521,POINT (-71.06222575726521 42.36628985)
"BARRY'S CORNER PROPERTY, LLC",12/02/2013 12:00:00 AM,12/31/2016 12:00:00 AM,CV7AL,CV7 All Alc.,0,219, Western Av,"(42.364022, -71.130413)",42.3632943,-71.1306946,POINT (-71.1306946 42.3632943)
"SIP WINE BAR AND KITCHEN, INC.",11/27/2013 12:00:00 AM,12/31/2016 12:00:00 AM,CV7AL,CV7 All Alc.,163,571,  Washington ST,"(42.353531, -71.062736)",42.350293900000004,-71.16487224571489,POINT (-71.16487224571489 42.3502939)
"Twleve22, LLC.",11/26/2013 12:00:00 AM,12/31/2016 12:00:00 AM,CV7AL,CV7 All Alc.,181,1222,  Washington ST,"(42.342794, -71.066726)",42.2620157,-71.15640570000001,POINT (-71.15640570000001 42.2620157)
"VAN'S RESTAURANT & BAR, INC.",11/26/2013 12:00:00 AM,12/31/2016 12:00:00 AM,CV7AL,CV7 All Alc.,75,1154, Dorchester Av,"(42.307719, -71.05859)",42.311563925399426,-71.05741560178039,POINT (-71.05741560178039 42.31156392539943)
"RING ROAD RESTAURANT GROUP, LLC",11/27/2013 12:00:00 AM,12/31/2016 12:00:00 AM,CV7AL,CV7 All Alc.,0,780,  Boylston ST,"(42.348135, -71.080855)",42.34905515000001,-71.08159945,POINT (-71.08159945 42.34905515000001)
"SEAPORT HOSPITALITY, INC.",12/01/2013 12:00:00 AM,12/31/2016 12:00:00 AM,CV7AL,CV7 All Alc.,300,425,  Summer ST,"(42.346219, -71.043099)",42.3461583,-71.04330470000001,POINT (-71.04330470000001 42.3461583)
"SPORTS CONNECTION BAR & GRILL, INC.",11/21/2013 12:00:00 AM,12/31/2016 12:00:00 AM,CV7AL,CV7 All Alc.,99,560,  Dorchester AV,"(42.330488, -71.05673)",42.33055444444445,-71.05684922222223,POINT (-71.05684922222223 42.33055444444445)
STANJACK CORPORATION,12/17/2013 12:00:00 AM,12/31/2016 12:00:00 AM,CV7AL,CV7 All Alc.,59,645,E Second ST,"(42.33718, -71.03733)",42.337201,-71.037309,POINT (-71.03730899999999 42.337201)
"METRO DINING, INC.",12/02/2013 12:00:00 AM,12/31/2016 12:00:00 AM,CV7AL,CV7 All Alc.,175,32,  Harvard AV,"(42.354873, -71.132348)",42.3004374,-71.07598785344345,POINT (-71.07598785344345 42.3004374)
THE GROMIT GROUP LLC,11/26/2013 12:00:00 AM,12/31/2016 12:00:00 AM,CV7AL,CV7 All Alc.,330,69,  Kilmarnock ST,"(42.34258, -71.09953)",42.3424717,-71.0994794,POINT (-71.09947940000001 42.3424717)
"GALLEON VENTURES,  INC.",11/26/2013 12:00:00 AM,12/31/2016 12:00:00 AM,CV7AL,CV7 All Alc.,99,134,  Smith ST,"(42.33471, -71.10204)",42.33474969387756,-71.10217687755103,POINT (-71.10217687755103 42.33474969387756)
STADIUM RESTAURANT LLC,11/29/2013 12:00:00 AM,12/31/2016 12:00:00 AM,CV7AL,CV7 All Alc.,509,232, Old Colony Av,"(42.33218, -71.05325)",42.331877950212494,-71.05349889457824,POINT (-71.05349889457824 42.33187795021249)
"RESTAURANTE CESARIA, INC.",11/27/2013 12:00:00 AM,12/31/2016 12:00:00 AM,CV7AL,CV7 All Alc.,99,266, Bowdoin St,"(42.30692, -71.06667)",42.306915999999994,-71.06641185714284,POINT (-71.06641185714284 42.30691599999999)
"ALLSTON RESTAURANT GROUP, LLC",11/26/2013 12:00:00 AM,12/31/2016 12:00:00 AM,CV7AL,CV7 All Alc.,143,458,  Western AV,"(42.361959, -71.142208)",42.36195475,-71.1422123229033,POINT (-71.1422123229033 42.36195475)
CM DIAMOND IMPORTERS LLC,12/02/2013 12:00:00 AM,12/31/2016 12:00:00 AM,CV7AL,CV7 All Alc.,338,1,  Winter PL,"(42.351846, -71.060822)",42.355821999999996,-71.061525,POINT (-71.061525 42.355822)
"MASSACHUSETTS SPORTSERVICE, INC.",11/27/2013 12:00:00 AM,12/31/2016 12:00:00 AM,CV7AL,CV7 All Alc.,426,100,  Legends WY,"(42.36629, -71.0622)",42.36628985,-71.06222575726521,POINT (-71.06222575726521 42.36628985)
"325, LLC",11/27/2013 12:00:00 AM,12/31/2016 12:00:00 AM,CV7AL,CV7 All Alc.,123,81,  Fairmount AV,"(42.25459, -71.12019)",42.254473499999996,-71.12017313576659,POINT (-71.12017313576659 42.2544735)
"THE JUNCTION TAVERN, INC.",11/25/2013 12:00:00 AM,12/31/2016 12:00:00 AM,CV7AL,CV7 All Alc.,140,110,  Dorchester ST,"(42.335139, -71.04595)",42.33524670531341,-71.04599796215926,POINT (-71.04599796215926 42.33524670531341)
"GLORY RBG, LLC",11/14/2013 12:00:00 AM,12/31/2016 12:00:00 AM,CV7AL,CV7 All Alc.,449,200,  High ST,"(42.35678, -71.052)",42.3568214,-71.0517938,POINT (-71.0517938 42.3568214)
"SMJ GROUP, LLC",11/21/2013 12:00:00 AM,12/31/2016 12:00:00 AM,CV7AL,CV7 All Alc.,115,1357,  Washington ST,"(42.34165, -71.06928)",42.2620157,-71.15640570000001,POINT (-71.15640570000001 42.2620157)
"MELA GROUP, INC.",11/26/2013 12:00:00 AM,12/31/2016 12:00:00 AM,CV7AL,CV7 All Alc.,49,574, Tremont St,"(42.343257, -71.072509)",42.34331005,-71.07243836196632,POINT (-71.07243836196632 42.34331005)
"THE BACK DECK, INC.",11/26/2013 12:00:00 AM,12/31/2016 12:00:00 AM,CV7ALR,CV7 All Alc. Restrict.,142,10,  West ST,"(42.354426, -71.062191)",42.35450675,-71.06223106970576,POINT (-71.06223106970576 42.35450675)
"PHO BASIL, INC.",11/18/2013 12:00:00 AM,12/31/2016 12:00:00 AM,CV7MW,CV7 Malt Wine,60,177,  Massachusetts AV,"(42.34577, -71.08734)",42.345810799999995,-71.08726180000001,POINT (-71.08726180000001 42.3458108)
"FARANDOLE, LLC",11/12/2013 12:00:00 AM,12/31/2016 12:00:00 AM,CV7MW,CV7 Malt Wine,48,175,  Massachusetts AV,"(42.34583, -71.08737)",42.3458492,-71.08727640000001,POINT (-71.08727640000001 42.3458492)
"TRIANGLE RESTAURANT, LLC",11/15/2013 12:00:00 AM,12/31/2016 12:00:00 AM,CV7MW,CV7 Malt Wine,0,304,  Stuart ST,"(42.349832, -71.070578)",42.349835866666666,-71.0707978,POINT (-71.07079779999999 42.34983586666667)
"BONCHON ALLSTON, LLC",11/26/2013 12:00:00 AM,12/31/2016 12:00:00 AM,CV7MW,CV7 Malt Wine,88,101,  Brighton AV,"(42.353081, -71.130624)",42.352927,-71.13031600000001,POINT (-71.13031600000001 42.352927)
"TABAR, INC.",11/29/2013 12:00:00 AM,12/31/2016 12:00:00 AM,CV7MW,CV7 Malt Wine,18,611,  Dorchester AV,"(42.328788, -71.057108)",42.3288045,-71.05708809999999,POINT (-71.05708809999999 42.3288045)
"DOT BOY, INC.",11/27/2013 12:00:00 AM,12/31/2016 12:00:00 AM,CV7MW,CV7 Malt Wine,86,476,  Commonwealth AV,"(42.34854, -71.09385)",42.3485631,-71.09386020000001,POINT (-71.09386020000001 42.3485631)
"Fairouz Restaurant, Inc.",11/29/2013 12:00:00 AM,12/31/2016 12:00:00 AM,CV7MWL,CV7 Malt Wine Liq.,66,5268, Washington St,"(42.25931, -71.1589)",42.25913458823529,-71.15992026470589,POINT (-71.15992026470589 42.25913458823529)
"AMICI, INC.",11/25/2013 12:00:00 AM,12/31/2016 12:00:00 AM,CV7MWL,CV7 Malt Wine Liq.,49,111,N Washington ST,"(42.365582, -71.058131)",42.30517822222223,-71.08039022222222,POINT (-71.08039022222222 42.30517822222223)
"MODERN PASTRY, INC.",11/01/2013 12:00:00 AM,12/31/2016 12:00:00 AM,CV7MWL,CV7 Malt Wine Liq.,94,261,  Hanover ST,"(42.36329, -71.0547)",42.363442777777784,-71.05471555555555,POINT (-71.05471555555555 42.36344277777778)
SHABU ZEN INTERNATIONAL,11/26/2013 12:00:00 AM,12/31/2016 12:00:00 AM,CV7MWL,CV7 Malt Wine Liq.,152,78,  Brighton AV,"(42.352422, -71.128929)",42.35247639999999,-71.128792,POINT (-71.128792 42.35247639999999)
"Suishaya, Inc.",11/29/2013 12:00:00 AM,12/31/2016 12:00:00 AM,CV7MWL,CV7 Malt Wine Liq.,48,2,  Tyler ST,"(42.35121, -71.06037)",42.246815999999995,-71.125222,POINT (-71.12522199999999 42.246816)
"AMPHITRYON RESTAURANT GROUP, LLC",11/26/2013 12:00:00 AM,12/31/2016 12:00:00 AM,CV7MWL,CV7 Malt Wine Liq.,16,153,  Belgrade AV,"(42.286425, -71.136969)",42.28634894117647,-71.1367551764706,POINT (-71.1367551764706 42.28634894117647)
"MYERS & CHANG, LLC",11/27/2013 12:00:00 AM,12/31/2016 12:00:00 AM,CV7MWLR,CV7 Malt Wine Liq. Restrict.,75,1143,  Washington ST,"(42.3438, -71.06631)",42.272541973986065,-71.06964529867506,POINT (-71.06964529867506 42.27254197398607)
"HONG ZE RESTAURANT, INC.",11/22/2013 12:00:00 AM,12/31/2016 12:00:00 AM,CV7MWR,CV7 Malt Wine Restrict.,106,19,  Hudson ST,"(42.35063, -71.06027)",42.3505444,-71.06030687187891,POINT (-71.06030687187891 42.3505444)
"CJ WASHINGTON STREET, LLC",11/26/2013 12:00:00 AM,12/31/2016 12:00:00 AM,INNAL,Inn. All Alc.,0,821,  Washington ST,"(42.348943, -71.064316)",42.3488946,-71.0642452,POINT (-71.0642452 42.3488946)
N&N FOODS INCORPORATED,11/26/2013 12:00:00 AM,12/31/2016 12:00:00 AM,CV7MW,CV7 Malt Wine,45,1799, Commonwealth Av,"(42.340611, -71.151579)",42.3504455,-71.10930570000001,POINT (-71.10930570000001 42.3504455)
"21ST, INC.",11/25/2013 12:00:00 AM,12/31/2016 12:00:00 AM,CV7AL,CV7 All Alc.,96,150,  Bowdoin ST,"(42.358336, -71.062581)",42.30388595071536,-71.07072391522667,POINT (-71.07072391522667 42.30388595071536)
"THE WINE BAR, LLC",11/12/2013 12:00:00 AM,12/31/2016 12:00:00 AM,CV7AL,CV7 All Alc.,263,49,  Temple PL,"(42.35493, -71.061809)",42.355197087008364,-71.06211639720573,POINT (-71.06211639720573 42.35519708700836)
"CARMAC, INC.",11/25/2013 12:00:00 AM,12/31/2016 12:00:00 AM,CV7AL,CV7 All Alc.,240,6,  Beacon ST,"(42.35814, -71.06152)",42.358149,-71.0617226,POINT (-71.0617226 42.358149)
"99 RESTAURANTS OF BOSTON, LLC",11/29/2013 12:00:00 AM,12/31/2016 12:00:00 AM,CV7AL,CV7 All Alc.,226,29,  Austin ST,"(42.374884, -71.067065)",42.29320614285713,-71.09029257142858,POINT (-71.09029257142858 42.29320614285713)
"AREA FOUR CENTRAL OPERATING, LLC",11/27/2013 12:00:00 AM,12/31/2016 12:00:00 AM,CV7AL,CV7 All Alc.,0,275,  Albany ST,"(42.343759, -71.062729)",42.34347223489117,-71.06243291089723,POINT (-71.06243291089723 42.34347223489117)
"BBRG TR, LLC",11/25/2013 12:00:00 AM,12/31/2016 12:00:00 AM,CV7AL,CV7 All Alc.,425,777,  Boylston ST,"(42.349221, -71.081588)",42.3492471,-71.08138249999999,POINT (-71.08138249999999 42.3492471)
"AMERICAN MULTI-CINEMA, INC.",11/22/2013 12:00:00 AM,12/31/2016 12:00:00 AM,CV7AL,CV7 All Alc.,4498,175,  Tremont ST,"(42.35315, -71.06403)",42.35344325,-71.06393798116154,POINT (-71.06393798116154 42.35344325)
"MARKETPLACE SALOON, INC.",11/26/2013 12:00:00 AM,12/31/2016 12:00:00 AM,CV7AL,CV7 All Alc.,92,294, Faneuil Hall Marketplace ,"(42.360036, -71.056253)",42.36005485,-71.05460485041264,POINT (-71.05460485041264 42.36005485)
ANCHOVIES ACQUISITION LIMITED PARTNERSHIP,11/13/2013 12:00:00 AM,12/31/2016 12:00:00 AM,CV7AL,CV7 All Alc.,64,433,  Columbus AV,"(42.344027, -71.077869)",42.34385084615385,-71.07746903846153,POINT (-71.07746903846153 42.34385084615385)
"ANGELA'S CAFE GROUP, INC.",11/26/2013 12:00:00 AM,12/31/2016 12:00:00 AM,CV7MWL,CV7 Malt Wine Liq.,19,131,  Lexington ST,"(42.37853, -71.035)",42.378556,-71.035023,POINT (-71.035023 42.378556)
"ANGELA'S CAFE II, INC.",11/19/2013 12:00:00 AM,12/31/2016 12:00:00 AM,CV7MWL,CV7 Malt Wine Liq.,60,1012,  Bennington ST,"(42.387115, -71.006309)",42.386971,-71.006249,POINT (-71.006249 42.386971)
"ANH HONG RESTAURANT, LLC",11/15/2013 12:00:00 AM,12/31/2016 12:00:00 AM,CV7MWR,CV7 Malt Wine Restrict.,95,291,  Adams ST,"(42.299183, -71.05818)",42.299158,-71.058074,POINT (-71.058074 42.299158)
"ANTHONY'S PIER FOUR, INC.",11/29/2013 12:00:00 AM,12/31/2016 12:00:00 AM,CV7AL,CV7 All Alc.,1076,140,  Northern AV,"(42.35338, -71.04149)",42.35024127629971,-71.04252154541753,POINT (-71.04252154541753 42.35024127629971)
"Anthony's Restaurant Group, LLC",06/30/2015 12:00:00 AM,12/31/2016 12:00:00 AM,CV7ALN,CV7ALN - Neighborhood Restricted,0,5,  Fairmount AV,"(42.25553, -71.121111)",42.255492,-71.12097462068967,POINT (-71.12097462068967 42.255492)
APPLE NEW ENGLAND LLC,11/26/2013 12:00:00 AM,12/31/2016 12:00:00 AM,CV7AL,CV7 All Alc.,127,381, Chestnut Hill Av,"(42.335181, -71.151107)",42.335699,-71.150696,POINT (-71.150696 42.335699)
"569 TREMONT, INC.",11/26/2013 12:00:00 AM,12/31/2016 12:00:00 AM,CV7AL,CV7 All Alc.,72,569,  Tremont ST,"(42.343801, -71.07235)",42.3437826,-71.07235820000001,POINT (-71.07235820000001 42.3437826)
"DONAN, INC.",11/25/2013 12:00:00 AM,12/31/2016 12:00:00 AM,CV7AL,CV7 All Alc.,99,4,  Prince ST,"(42.36405, -71.05368)",42.36405675,-71.05368731942583,POINT (-71.05368731942583 42.36405675)
"NANCY'S, INC.",11/25/2013 12:00:00 AM,12/31/2016 12:00:00 AM,CV7MWL,CV7 Malt Wine Liq.,19,89,  Charles ST,"(42.35859, -71.07049)",42.35856695,-71.07050151847827,POINT (-71.07050151847827 42.35856695)
"ASHMONT GRILL, LLC",11/27/2013 12:00:00 AM,12/31/2016 12:00:00 AM,CV7AL,CV7 All Alc.,120,555,  Talbot AV,"(42.286091, -71.064728)",42.2860989,-71.0646266,POINT (-71.0646266 42.2860989)
"ASIAN GARDEN, INC.",11/06/2013 12:00:00 AM,12/31/2016 12:00:00 AM,CV7MW,CV7 Malt Wine,42,28,  Harrison AV,"(42.35195, -71.06103)",42.336417,-71.071885,POINT (-71.07188499999999 42.336417)
SPACESHIP PICNIC LLC,11/19/2013 12:00:00 AM,12/31/2016 12:00:00 AM,CV7MWL,CV7 Malt Wine Liq.,49,47,  Massachusetts AV,"(42.34982, -71.08927)",42.34984945,-71.08925272656502,POINT (-71.08925272656502 42.34984945)
"ATLANTIC BEER GARDEN, INC.",11/20/2013 12:00:00 AM,12/31/2016 12:00:00 AM,CV7AL,CV7 All Alc.,228,146,  Northern AV,"(42.350933, -71.04298)",42.350227519387886,-71.0424898628327,POINT (-71.0424898628327 42.35022751938789)
"BBRG TR, LLC",11/25/2013 12:00:00 AM,12/31/2016 12:00:00 AM,CV7AL,CV7 All Alc.,195,761,  Boylston ST,"(42.34935, -71.08121)",42.349293100000004,-71.0811812,POINT (-71.0811812 42.3492931)
"THICKER THAN WATER, INC.",11/26/2013 12:00:00 AM,12/31/2016 12:00:00 AM,CV7AL,CV7 All Alc.,95,838,  Beacon ST,"(42.34741, -71.10321)",42.347314000000004,-71.10314670000001,POINT (-71.10314670000001 42.347314)
550 TREMONT LLC,11/25/2013 12:00:00 AM,12/31/2016 12:00:00 AM,CV7MWL,CV7 Malt Wine Liq.,38,550,  Tremont ST,"(42.343895, -71.071263)",42.34389960000001,-71.07127516873739,POINT (-71.07127516873739 42.34389960000001)
"107 SALEM RESTAURANT, INC.",11/19/2013 12:00:00 AM,12/31/2016 12:00:00 AM,CV7AL,CV7 All Alc.,115,107,  Salem ST,"(42.36418, -71.05538)",42.364204,-71.055436,POINT (-71.055436 42.364204)
"BAMBOO, INC.",11/25/2013 12:00:00 AM,12/31/2016 12:00:00 AM,CV7MW,CV7 Malt Wine,49,1616,  Commonwealth AV,"(42.343246, -71.142709)",42.343512991035425,-71.14350975672345,POINT (-71.14350975672345 42.34351299103542)
"PHANPHIT, INC.",11/26/2013 12:00:00 AM,12/31/2016 12:00:00 AM,CV7MW,CV7 Malt Wine,19,433,  Washington ST,"(42.349345, -71.156794)",42.3493421,-71.15678879999999,POINT (-71.15678879999999 42.3493421)
BANGKOK CITY CORPORATION,11/27/2013 12:00:00 AM,12/31/2016 12:00:00 AM,CV7MW,CV7 Malt Wine,118,167,  Massachusetts AV,"(42.345998, -71.087473)",42.346075299999995,-71.08735340000001,POINT (-71.08735340000001 42.3460753)
"RRG, LLC",11/26/2013 12:00:00 AM,12/31/2016 12:00:00 AM,CV7AL,CV7 All Alc.,144,553, Tremont St,"(42.344321, -71.07184)",42.343996000000004,-71.07174,POINT (-71.07174000000001 42.343996)
"DARTCOM, LLC",11/12/2013 12:00:00 AM,12/31/2016 12:00:00 AM,CV7AL,CV7 All Alc.,124,154,  Commonwealth AV,"(42.351284, -71.078648)",42.35168166666666,-71.07785133333333,POINT (-71.07785133333333 42.35168166666666)
"BL RESTAURANT OPERATIONS, LLC",11/26/2013 12:00:00 AM,12/31/2016 12:00:00 AM,CV7AL,CV7 All Alc.,179,121,  Brookline AV,"(42.34575, -71.10049)",42.3457414,-71.10033059999999,POINT (-71.10033059999999 42.3457414)
"BARCELONA SOUTH END, LLC",11/22/2013 12:00:00 AM,12/31/2016 12:00:00 AM,CV7AL,CV7 All Alc.,172,525,  Tremont ST,"(42.344859, -71.070789)",42.3444755,-71.070965,POINT (-71.070965 42.3444755)
VAN LIN CORP,11/22/2013 12:00:00 AM,12/31/2016 12:00:00 AM,CV7AL,CV7 All Alc.,205,241,  A ST,"(42.346569, -71.051069)",42.34678292145063,-71.0511093332366,POINT (-71.0511093332366 42.34678292145063)
"CARDONA'S, INC.",11/26/2013 12:00:00 AM,12/31/2016 12:00:00 AM,CV7AL,CV7 All Alc.,62,299,  Havre ST,"(42.376526, -71.033798)",42.375925714285714,-71.0345872857143,POINT (-71.0345872857143 42.37592571428571)
"BARRACUDA TAVERN, INC.",11/19/2013 12:00:00 AM,12/31/2016 12:00:00 AM,CV7MWL,CV7 Malt Wine Liq.,60,10,  Bosworth ST,"(42.356881, -71.060299)",42.3569,-71.06016600000001,POINT (-71.06016600000001 42.3569)
"BASEBALL TAVERN, INC.",11/29/2013 12:00:00 AM,12/31/2016 12:00:00 AM,CV7AL,CV7 All Alc.,541,1270,  Boylston ST,"(42.344648, -71.096299)",42.34488194332687,-71.09630146900787,POINT (-71.09630146900787 42.34488194332687)
"49 MELCHER RESTAURANT GROUP, LLC",11/26/2013 12:00:00 AM,12/31/2016 12:00:00 AM,CV7AL,CV7 All Alc.,460,49,  Melcher ST,"(42.34942, -71.05037)",42.3493872,-71.05037339958923,POINT (-71.05037339958923 42.3493872)
"STATE ROOM, INC.",11/20/2013 12:00:00 AM,12/31/2016 12:00:00 AM,CV7AL,CV7 All Alc.,835,60,  State ST,"(42.35927, -71.05643)",42.35922935,-71.05642886016267,POINT (-71.05642886016267 42.35922935)
"MONDAY AFTERNOON, INC.",11/26/2013 12:00:00 AM,12/31/2016 12:00:00 AM,GOPAL,GOP All Alc.,268,149,  Charles ST,"(42.360479, -71.070569)",42.3604302,-71.070636,POINT (-71.07063599999999 42.3604302)
"BOSWORTH PLACE, INC.",11/19/2013 12:00:00 AM,12/31/2016 12:00:00 AM,CV7AL,CV7 All Alc.,249,100,  Tremont ST,"(42.357232, -71.060979)",42.35715820000001,-71.0607809,POINT (-71.0607809 42.35715820000001)
Bella Arianna LLC,11/29/2013 12:00:00 AM,12/31/2016 12:00:00 AM,CV7AL,CV7 All Alc.,160,107,  South ST,"(42.351401, -71.05752)",42.35161835384615,-71.05738435897436,POINT (-71.05738435897436 42.35161835384615)
OLD COLONIAL CORPORATION,11/14/2013 12:00:00 AM,12/31/2016 12:00:00 AM,CV7AL,CV7 All Alc.,496,45,  Union ST,"(42.3616, -71.05706)",42.36144,-71.057027,POINT (-71.05702700000001 42.36144)
"BELLA LUNA RESTAURANT, INC.",11/26/2013 12:00:00 AM,12/31/2016 12:00:00 AM,CV7AL,CV7 All Alc.,200,284, Amory St,"(42.314637, -71.104489)",42.3143773,-71.1040468,POINT (-71.10404680000001 42.3143773)
BERTUCCI'S RESTAURANT CORP.,11/15/2013 12:00:00 AM,12/31/2016 12:00:00 AM,CV7AL,CV7 All Alc.,219,533,  Commonwealth AV,"(42.34923, -71.09661)",42.348682139353286,-71.09646963880304,POINT (-71.09646963880304 42.34868213935329)
"CONCORDE ENTERTAINMENT, INC.",11/26/2013 12:00:00 AM,12/31/2016 12:00:00 AM,CV7AL,CV7 All Alc.,907,9,  Lansdowne ST,"(42.347341, -71.095081)",42.347345399999995,-71.0951514,POINT (-71.09515140000001 42.34734539999999)
"BEACON HILL HOSPITALITY GROUP, INC.",11/25/2013 12:00:00 AM,12/31/2016 12:00:00 AM,CV7MW,CV7 Malt Wine,64,20,  Charles ST,"(42.35664, -71.06994)",42.356663299999994,-71.0699291,POINT (-71.0699291 42.35666329999999)
"HM BOSTON, LLC",11/26/2013 12:00:00 AM,12/31/2016 12:00:00 AM,CV7AL,CV7 All Alc.,208,272,  Boylston ST,"(42.351859, -71.069669)",42.313794721996786,-71.10068138630339,POINT (-71.10068138630339 42.31379472199679)
CHELSEA CITY SQUARE CORP.,11/27/2013 12:00:00 AM,12/31/2016 12:00:00 AM,CV7AL,CV7 All Alc.,214,1,  Chelsea ST,"(42.3712, -71.061707)",42.370048,-71.038467,POINT (-71.038467 42.370048)
"EQUINOX SC BOSTON, INC.",11/25/2013 12:00:00 AM,12/31/2016 12:00:00 AM,CV7AL,CV7 All Alc.,168,4, Avery St,"(42.35307, -71.06292)",42.3531469,-71.0630373,POINT (-71.0630373 42.3531469)
"WATER DRAGON, LLC",11/27/2013 12:00:00 AM,12/31/2016 12:00:00 AM,CV7AL,CV7 All Alc.,99,324, A St,"(42.349391, -71.049735)",42.3493416,-71.04963944275094,POINT (-71.04963944275094 42.3493416)
ARGUETAS CORPORATION,11/27/2013 12:00:00 AM,12/31/2016 12:00:00 AM,CV7MWL,CV7 Malt Wine Liq.,31,30,  Bennington ST,"(42.37539, -71.038018)",42.37570145,-71.0369598,POINT (-71.03695980000001 42.37570145)
 ,01/20/2016 12:00:00 AM,12/31/2016 12:00:00 AM,CV7MWN,CV7MWN - Neighborhood Restricted,58,1138,  Blue Hill AV,"(42.285777, -71.09125)",42.3048452,-71.0848265,POINT (-71.08482650000001 42.3048452)
BOSTON & MAINE FISH COMPANY,11/13/2013 12:00:00 AM,12/31/2016 12:00:00 AM,CV7MW,CV7 Malt Wine,23,200,  Faneuil Hall Marketplace  ,"(42.360199, -71.054798)",42.36005485,-71.05460485041264,POINT (-71.05460485041264 42.36005485)
"CAFE JAFFA, INC.",11/06/2013 12:00:00 AM,12/31/2016 12:00:00 AM,CV7MW,CV7 Malt Wine,56,48,  Gloucester ST,"(42.348681, -71.084102)",42.3486892,-71.08406740000001,POINT (-71.08406740000001 42.3486892)
"BOSTON ATHLETIC CLUB, INC.",11/25/2013 12:00:00 AM,12/31/2016 12:00:00 AM,CV7AL,CV7 All Alc.,101,653,  Summer ST,"(42.33981, -71.04354)",42.33980445,-71.04353534027027,POINT (-71.04353534027027 42.33980445)
"SLESAR BROS. BREWING COMPANY, INC.",11/22/2013 12:00:00 AM,12/31/2016 12:00:00 AM,CV7AL,CV7 All Alc.,420,61,  Brookline AV,"(42.347163, -71.099081)",42.3469999,-71.09898869999999,POINT (-71.09898869999999 42.3469999)
"FIRST BOSTON TEN PIN, INC.",12/11/2014 12:00:00 AM,12/31/2016 12:00:00 AM,CV7ALN,CV7ALN - Neighborhood Restricted,250,820,  William T Morrissey BLVD,"(42.29388, -71.04627)",42.2941374539789,-71.04728811929266,POINT (-71.04728811929266 42.2941374539789)
BEANTOWN BURGER COMPANY,11/26/2013 12:00:00 AM,12/31/2016 12:00:00 AM,CV7MW,CV7 Malt Wine,52,1100,  Boylston ST,"(42.346842, -71.088506)",42.346850399999994,-71.0884838,POINT (-71.08848380000001 42.34685039999999)
"THE CLUB AT BOSTON COLLEGE, INC.",11/07/2013 12:00:00 AM,12/31/2016 12:00:00 AM,CV7AL,CV7 All Alc.,361,100,  Federal ST,"(42.35477, -71.05613)",42.3550559,-71.05595722374801,POINT (-71.05595722374801 42.3550559)
"MARRIOTT HOTEL SERVICES, INC.",11/21/2013 12:00:00 AM,12/31/2016 12:00:00 AM,INNAL,Inn. All Alc.,0,110, Huntington Av,"(42.347082, -71.078373)",42.346948700000006,-71.07812420592619,POINT (-71.07812420592619 42.34694870000001)
"BOSTON CULINARY GROUP, INC.",11/26/2013 12:00:00 AM,12/31/2016 12:00:00 AM,CV7AL,CV7 All Alc.,2677,539,  Washington ST,"(42.353999, -71.06237)",42.29302663636364,-71.071945,POINT (-71.071945 42.29302663636364)
IRENE NGUYEN,03/25/2014 12:00:00 AM,12/31/2016 12:00:00 AM,CV7MW,CV7 Malt Wine,140,1221,  Dorchester AV,"(42.30906, -71.05839)",42.30794367000625,-71.0584528477909,POINT (-71.0584528477909 42.30794367000625)
"TSI Summer Street, LLC",05/05/2015 12:00:00 AM,12/31/2016 12:00:00 AM,CLBMWR,Clb. Malt Wine Restrict.,301,100,  Summer ST,"(42.35356, -71.05736)",42.35384315,-71.05741601421146,POINT (-71.05741601421146 42.35384315)
"KUN JIN KIM, INDIVIDUAL",11/29/2013 12:00:00 AM,12/31/2016 12:00:00 AM,CV7AL,CV7 All Alc.,98,827,  Boylston ST,"(42.34897, -71.08257)",42.34893220000001,-71.0825485,POINT (-71.0825485 42.34893220000001)
"BOSTON STREET, INC.",11/25/2013 12:00:00 AM,12/31/2016 12:00:00 AM,CV7AL,CV7 All Alc.,84,224,  Boston ST,"(42.322272, -71.060848)",42.32214375,-71.0610015,POINT (-71.0610015 42.32214375)
B.T.U.H.W.F. SERVICE CORPORATION,11/26/2013 12:00:00 AM,12/31/2016 12:00:00 AM,CV7AL,CV7 All Alc.,1031,180,  Mount Vernon ST,"(42.322135, -71.046901)",42.32205095,-71.04716765211269,POINT (-71.04716765211269 42.32205095)
"CLOVER VENTURES, LLC",11/15/2013 12:00:00 AM,12/31/2016 12:00:00 AM,CV7AL,CV7 All Alc.,427,131,  State ST,"(42.358974, -71.054235)",42.35915742857143,-71.05448457142856,POINT (-71.05448457142856 42.35915742857143)
"GINA GUERRERO, INDIVIDUAL",11/12/2013 12:00:00 AM,12/31/2016 12:00:00 AM,CV7MWL,CV7 Malt Wine Liq.,36,102,  Meridian ST,"(42.37273, -71.0392)",42.3727313,-71.03925661208079,POINT (-71.03925661208079 42.3727313)
SAHA-PAKEE CORP.,11/26/2013 12:00:00 AM,12/31/2016 12:00:00 AM,CV7MW,CV7 Malt Wine,107,1033,  Commonwealth AV,"(42.352262, -71.121849)",42.3521499,-71.12195809999999,POINT (-71.12195809999999 42.3521499)
"111, LLC",11/25/2013 12:00:00 AM,12/31/2016 12:00:00 AM,CV7AL,CV7 All Alc.,110,111,  Dartmouth ST,"(42.346447, -71.075281)",42.3464338,-71.0753432,POINT (-71.07534320000001 42.3464338)
"MANRAJ, INC.",11/26/2013 12:00:00 AM,12/31/2016 12:00:00 AM,CV7MWL,CV7 Malt Wine Liq.,60,701,  Centre ST,"(42.311537, -71.114558)",42.3115692,-71.11453890000001,POINT (-71.11453890000001 42.3115692)
"MONTANUS, INC.",11/27/2013 12:00:00 AM,12/31/2016 12:00:00 AM,CV7MW,CV7 Malt Wine,49,50,  Dalton ST,"(42.347065, -71.085643)",42.347213200000006,-71.08540970000001,POINT (-71.08540970000001 42.34721320000001)
HAMPSHIRE HOUSE CORPORATION,11/19/2013 12:00:00 AM,12/31/2016 12:00:00 AM,CV7AL,CV7 All Alc.,569,84,  Beacon ST,"(42.355981, -71.071299)",42.3559525,-71.07125759999998,POINT (-71.07125759999998 42.3559525)
"BIC BURGERS SPRING STREET, LLC",11/29/2013 12:00:00 AM,12/31/2016 12:00:00 AM,CV7MW,CV7 Malt Wine,103,77,  Spring ST,"(42.277765, -71.16403)",42.277312306122454,-71.16488436734693,POINT (-71.16488436734693 42.27731230612245)
BIC Burgers Commonwealth LLC,11/29/2013 12:00:00 AM,12/31/2016 12:00:00 AM,CV7MW,CV7 Malt Wine,110,961,  Commonwealth AV,"(42.35192, -71.11908)",42.3520884,-71.11910288344623,POINT (-71.11910288344623 42.3520884)
"C & H, INC.",11/14/2013 12:00:00 AM,12/31/2016 12:00:00 AM,CV7AL,CV7 All Alc.,193,252,  Western AV,"(42.363164, -71.132799)",42.36326690095688,-71.13284054624826,POINT (-71.13284054624826 42.36326690095688)
REINA HENRIQUEZ,11/19/2013 12:00:00 AM,12/31/2016 12:00:00 AM,CV7MWR,CV7 Malt Wine Restrict.,19,80,  Bennington ST,"(42.37608, -71.0361)",42.375080825,-71.03861479999998,POINT (-71.03861479999998 42.375080825)
"CAFFE PARADISO, INC.",11/26/2013 12:00:00 AM,12/31/2016 12:00:00 AM,CV7AL,CV7 All Alc.,130,255,  Hanover ST,"(42.363223, -71.054789)",42.36327822222223,-71.05487755555555,POINT (-71.05487755555555 42.36327822222223)
"CAFFE VITTORIA, INC.",11/19/2013 12:00:00 AM,12/31/2016 12:00:00 AM,CV7AL,CV7 All Alc.,181,296,  Hanover ST,"(42.36414, -71.05435)",42.36321265306122,-71.05559585714286,POINT (-71.05559585714286 42.36321265306122)
"CALIFORNIA PIZZA KITCHEN,INC.",11/25/2013 12:00:00 AM,12/31/2016 12:00:00 AM,CV7AL,CV7 All Alc.,175,800,  Boylston ST,"(42.347296, -71.081457)",42.3471718,-71.08250628733232,POINT (-71.08250628733232 42.3471718)
"J. P. PARTNERS, INC.",11/08/2013 12:00:00 AM,12/31/2016 12:00:00 AM,CV7AL,CV7 All Alc.,150,435,S Huntington AV,"(42.31979, -71.112)",42.31979175,-71.11201272803878,POINT (-71.11201272803878 42.31979175)
"443 BROADWAY, LLC",11/22/2013 12:00:00 AM,12/31/2016 12:00:00 AM,CV7AL,CV7 All Alc.,360,439,W Broadway ,"(42.33615, -71.04718)",42.33629283242488,-71.04712786600638,POINT (-71.04712786600638 42.33629283242488)
"READVILLE TAVERN, INC.",11/25/2013 12:00:00 AM,12/31/2016 12:00:00 AM,CV7AL,CV7 All Alc.,85,11,  Wolcott CT,"(42.237865, -71.131859)",42.23779331280408,-71.13173357561563,POINT (-71.13173357561563 42.23779331280408)
"CARLO'S CUCINA ITALIANA, INC.",11/29/2013 12:00:00 AM,12/31/2016 12:00:00 AM,CV7MWL,CV7 Malt Wine Liq.,48,131,  Brighton AV,"(42.353088, -71.131159)",42.352815,-71.13171264285714,POINT (-71.13171264285714 42.352815)
"SCHIAFFO, INC.",11/22/2013 12:00:00 AM,12/31/2016 12:00:00 AM,CV7MWL,CV7 Malt Wine Liq.,38,307,  Hanover ST,"(42.36388, -71.05416)",42.3640518,-71.0540612,POINT (-71.05406120000001 42.3640518)
"CROKE PARK, INC.",11/29/2013 12:00:00 AM,12/31/2016 12:00:00 AM,CV7AL,CV7 All Alc.,67,268,W Broadway ,"(42.339275, -71.051191)",42.339219373129076,-71.05128604075766,POINT (-71.05128604075766 42.33921937312908)
"JACKEENS, INC.",11/25/2013 12:00:00 AM,12/31/2016 12:00:00 AM,CV7AL,CV7 All Alc.,358,11,  Beacon ST,"(42.35838, -71.06178)",42.3583818,-71.061713,POINT (-71.061713 42.3583818)
"DU FOURS, INC.",11/21/2013 12:00:00 AM,12/31/2016 12:00:00 AM,CV7AL,CV7 All Alc.,104,30,  Gloucester ST,"(42.349444, -71.084498)",42.3494382,-71.0845647,POINT (-71.0845647 42.3494382)
711 CENTRE LLC,11/29/2013 12:00:00 AM,12/31/2016 12:00:00 AM,CV7MWL,CV7 Malt Wine Liq.,58,711,  Centre ST,"(42.311378, -71.114669)",42.3113581,-71.11461109999999,POINT (-71.11461109999999 42.3113581)
"WEST END DINING, LLC",11/27/2013 12:00:00 AM,12/31/2016 12:00:00 AM,CV7AL,CV7 All Alc.,199,65,  Causeway ST,"(42.364444, -71.062676)",42.36457585714286,-71.06269885714286,POINT (-71.06269885714286 42.36457585714286)
"PARK AVENUE GROUP, INC.",11/18/2013 12:00:00 AM,12/31/2016 12:00:00 AM,CV7AL,CV7 All Alc.,157,1406,  Hyde Park AV,"(42.25062, -71.12573)",42.250560899999996,-71.12586429999999,POINT (-71.12586429999999 42.2505609)
"OZNEMOC, INC.",11/22/2013 12:00:00 AM,12/31/2016 12:00:00 AM,CV7AL,CV7 All Alc.,394,12,  Lagrange ST,"(42.351434, -71.063278)",42.27331460605453,-71.14418316447866,POINT (-71.14418316447866 42.27331460605453)
"O&M PARTNERS, LLC",11/29/2013 12:00:00 AM,12/31/2016 12:00:00 AM,CV7AL,CV7 All Alc.,96,1664, Dorchester Av,"(42.293958, -71.06222)",42.2934803867454,-71.06202990844388,POINT (-71.06202990844388 42.2934803867454)
"FACILITY CONCESSION SERVICES, INC.",11/25/2013 12:00:00 AM,12/31/2016 12:00:00 AM,CV7AL,CV7 All Alc.,871,74,  Warrenton ST,"(42.34996, -71.06617)",42.34976462154177,-71.0663344002148,POINT (-71.0663344002148 42.34976462154177)
CHARLESMARK HOTEL LLC,11/15/2013 12:00:00 AM,12/31/2016 12:00:00 AM,INNAL,Inn. All Alc.,0,655,  Boylston ST,"(42.35004, -71.07857)",42.3499981,-71.0785679,POINT (-71.0785679 42.3499981)
"CHAU CHOW CITY, INC.",11/22/2013 12:00:00 AM,12/31/2016 12:00:00 AM,CV7AL,CV7 All Alc.,552,81,  Essex ST,"(42.35241, -71.06026)",42.37951370193645,-71.07037552964022,POINT (-71.07037552964022 42.37951370193645)
NEW TIMES GROUP CORPORATION,11/21/2013 12:00:00 AM,12/31/2016 12:00:00 AM,CV7MWL,CV7 Malt Wine Liq.,40,30,  Massachusetts AV,"(42.35037, -71.08902)",42.3504266,-71.0890446,POINT (-71.08904459999999 42.3504266)
"HAPPY DUCK, INC.",11/19/2013 12:00:00 AM,12/31/2016 12:00:00 AM,CV7MW,CV7 Malt Wine,78,829,  Boylston ST,"(42.34894, -71.08267)",42.348913,-71.08264270000001,POINT (-71.08264270000001 42.348913)
"MW & W, INC.",11/26/2013 12:00:00 AM,12/31/2016 12:00:00 AM,CV7AL,CV7 All Alc.,645,9,  Tyler ST,"(42.351085, -71.060788)",42.351025899999996,-71.0607541,POINT (-71.0607541 42.3510259)
"CORREIA, INC.",11/27/2013 12:00:00 AM,12/31/2016 12:00:00 AM,CV7AL,CV7 All Alc.,80,257,  Norfolk AV,"(42.323726, -71.068078)",42.324661,-71.068895,POINT (-71.068895 42.324661)
"SOUTH END JOINT VENTURE III (SEJV III), GENERAL PARTNERSHIP",11/22/2013 12:00:00 AM,12/31/2016 12:00:00 AM,CV7ALR,CV7 All Alc. Restrict.,300,490,  Harrison AV,"(42.342141, -71.065789)",42.34218,-71.06584433333333,POINT (-71.06584433333333 42.34218)
"CITY TAP HOUSE FORT POINT, LLC",11/25/2013 12:00:00 AM,12/31/2016 12:00:00 AM,CV7AL,CV7 All Alc.,0,22,  Boston Wharf RD,"(42.35045, -71.046974)",42.35043815,-71.04698594908186,POINT (-71.04698594908186 42.35043815)
MCBOIS LIMITED,12/01/2013 12:00:00 AM,12/31/2016 12:00:00 AM,CV7AL,CV7 All Alc.,40,278,  Shawmut AV,"(42.342938, -71.06889)",42.343019692307685,-71.0689276923077,POINT (-71.0689276923077 42.34301969230768)
"A.T.G., INC.",11/25/2013 12:00:00 AM,12/31/2016 12:00:00 AM,CV7AL,CV7 All Alc.,349,331,  Columbus AV,"(42.346243, -71.0752)",42.3460947027027,-71.07514018918918,POINT (-71.07514018918918 42.3460947027027)
"Clover Fast Food, Inc.",11/20/2013 12:00:00 AM,12/31/2016 12:00:00 AM,CV7MWL,CV7 Malt Wine Liq.,0,27, School St,"(42.35772, -71.05907)",42.357701,-71.0591519,POINT (-71.0591519 42.357701)
BHC CORPORATION GENERAL PARTNER,11/14/2013 12:00:00 AM,12/31/2016 12:00:00 AM,CV7AL,CV7 All Alc.,433,209,  Columbus AV,"(42.348549, -71.07237)",42.34860125,-71.07234395,POINT (-71.07234395 42.34860125)
"BAYSIDE CLUB HOTEL, LLC",11/22/2013 12:00:00 AM,12/31/2016 12:00:00 AM,INNAL,Inn. All Alc.,0,240,  Mount Vernon ST,"(42.319024, -71.045007)",42.3201511,-71.04783302538732,POINT (-71.04783302538732 42.3201511)
"COLUMBUS PARTNERS, INC.",11/08/2013 12:00:00 AM,12/31/2016 12:00:00 AM,CV7AL,CV7 All Alc.,70,329,  Columbus AV,"(42.34632, -71.075098)",42.346127054054044,-71.07509978378378,POINT (-71.07509978378378 42.34612705405404)
"1844, INC.",11/27/2013 12:00:00 AM,12/31/2016 12:00:00 AM,CV7MW,CV7 Malt Wine,26,1844,  Centre ST,"(42.28632, -71.154101)",42.2978789,-71.13028249999999,POINT (-71.13028249999999 42.2978789)
"BKW PARTNERS, INC.",11/19/2013 12:00:00 AM,12/31/2016 12:00:00 AM,CV7MWL,CV7 Malt Wine Liq.,123,329,  Huntington AV,"(42.340923, -71.08819)",42.26664275,-71.1168025,POINT (-71.11680250000001 42.26664275)
"ONE HUNDRED SEVENTY THREE MILK ST.,INC.",11/25/2013 12:00:00 AM,12/31/2016 12:00:00 AM,CV7AL,CV7 All Alc.,203,171,  Milk ST,"(42.35827, -71.0533)",42.3583073,-71.05329499999999,POINT (-71.05329499999999 42.3583073)
"CPF COPLEY LESSEE, LLC",11/26/2013 12:00:00 AM,12/31/2016 12:00:00 AM,INNAL,Inn. All Alc.,0,47, Huntington Av,"(42.348314, -71.078667)",42.3483514,-71.07872890000002,POINT (-71.07872890000002 42.3483514)
"CORNER CAFE, INC..",11/25/2013 12:00:00 AM,12/31/2016 12:00:00 AM,CV7AL,CV7 All Alc.,32,87,  Prince ST,"(42.36561, -71.05597)",42.3123089,-71.12119139524674,POINT (-71.12119139524674 42.3123089)
"CONEY ISLAND BAR, INC.",11/18/2013 12:00:00 AM,12/31/2016 12:00:00 AM,CV7AL,CV7 All Alc.,180,396,  Market ST,"(42.3499, -71.15277)",42.34995,-71.152902,POINT (-71.152902 42.34995)
"LAGRANGE LOUNGE AND RESTAURANT, INC.",11/26/2013 12:00:00 AM,12/31/2016 12:00:00 AM,CV7AL,CV7 All Alc.,250,2022,  Centre ST,"(42.280802, -71.157911)",42.281164144619034,-71.1580060440617,POINT (-71.15800604406169 42.28116414461903)
"COSTELLO'S TAVERN, INC.",11/22/2013 12:00:00 AM,12/31/2016 12:00:00 AM,CV7AL,CV7 All Alc.,150,717,  Centre ST,"(42.31124, -71.11473)",42.31128185,-71.11476158511256,POINT (-71.11476158511256 42.31128185)
JOHNNY BOY'S INC.,11/26/2013 12:00:00 AM,12/31/2016 12:00:00 AM,CV7AL,CV7 All Alc.,48,1227, Hyde Park Av,"(42.257202, -71.124063)",42.25688876240413,-71.123980797906,POINT (-71.123980797906 42.25688876240413)
COURTYARD MANAGEMENT CORPORATION,11/25/2013 12:00:00 AM,12/31/2016 12:00:00 AM,INNAL,Inn. All Alc.,0,275,  Tremont ST,"(42.350032, -71.065531)",42.3545779,-71.179390975,POINT (-71.179390975 42.3545779)
HIREN BOSTON LLC,11/26/2013 12:00:00 AM,12/31/2016 12:00:00 AM,INNAL,Inn. All Alc.,0,33,W Howell ST,"(42.325418, -71.058409)",42.32559185136093,-71.05967910832781,POINT (-71.05967910832781 42.32559185136093)
"MJ BACK BAY, LLC",11/15/2013 12:00:00 AM,12/31/2016 12:00:00 AM,INNMW,Innholder Malt & Wine,0,88,  Exeter ST,"(42.3486, -71.078818)",42.3485942,-71.0788563,POINT (-71.0788563 42.3485942)
"TURNAROUND SUSHI, INC.",12/01/2013 12:00:00 AM,12/31/2016 12:00:00 AM,CV7MWL,CV7 Malt Wine Liq.,108,75,  Kneeland ST,"(42.350178, -71.06061)",42.350244599999996,-71.06079100000001,POINT (-71.06079100000001 42.3502446)
Bobby Charlton LLC,11/25/2013 12:00:00 AM,12/31/2016 12:00:00 AM,CV7AL,CV7 All Alc.,196,495,  Beacon ST,"(42.350586, -71.08976)",42.3504821,-71.08973245284932,POINT (-71.08973245284932 42.3504821)
CRUDO NORTH END LLC,11/25/2013 12:00:00 AM,12/31/2016 12:00:00 AM,CV7MWL,CV7 Malt Wine Liq.,76,78,  Salem ST,"(42.36369, -71.05591)",42.377501333333335,-71.066486875,POINT (-71.066486875 42.37750133333333)
Russian Benevolent society,11/21/2013 12:00:00 AM,12/31/2016 12:00:00 AM,CV7AL,CV7 All Alc.,440,14,  Linden ST,"(42.35537, -71.13028)",42.35559979999999,-71.1307446,POINT (-71.1307446 42.35559979999999)
"PAIGE HOSPITALITY, INC.",11/21/2013 12:00:00 AM,12/31/2016 12:00:00 AM,CV7AL,CV7 All Alc.,382,246,  Tremont ST,"(42.350688, -71.064668)",42.3507175,-71.0646947,POINT (-71.0646947 42.3507175)
EIGHT REGIONS LLC,11/20/2013 12:00:00 AM,12/31/2016 12:00:00 AM,CV7AL,CV7 All Alc.,101,162,  Columbus AV,"(42.349256, -71.070608)",42.34957267346939,-71.07043314285714,POINT (-71.07043314285714 42.34957267346939)
"DARRYLS'S CORNER BAR & KITCHEN, INC.",11/25/2013 12:00:00 AM,12/31/2016 12:00:00 AM,CV7AL,CV7 All Alc.,108,604,  Columbus AV,"(42.33975, -71.082398)",42.3398422,-71.0824905,POINT (-71.08249050000001 42.3398422)
"75 ARLINGTON STREET, INC.",11/29/2013 12:00:00 AM,12/31/2016 12:00:00 AM,CV7AL,CV7 All Alc.,234,75,  Arlington ST,"(42.35068, -71.07036)",42.3504901,-71.07036171528705,POINT (-71.07036171528705 42.3504901)
BRIGHTON R.I CORPORATION,11/22/2013 12:00:00 AM,12/31/2016 12:00:00 AM,CV7AL,CV7 All Alc.,168,1234,  Soldiers Field RD,"(42.3637, -71.13638)",42.364123600000006,-71.1365224,POINT (-71.1365224 42.36412360000001)
"DEEP ELLUM, INC.",11/26/2013 12:00:00 AM,12/31/2016 12:00:00 AM,CV7AL,CV7 All Alc.,148,477,  Cambridge ST,"(42.353902, -71.13703)",42.3539041,-71.1370766,POINT (-71.1370766 42.3539041)
COLUMBUS MANAGING CORP.,11/26/2013 12:00:00 AM,12/31/2016 12:00:00 AM,CV7MW,CV7 Malt Wine,49,754,  South ST,"(42.28702, -71.12948)",42.287009791724095,-71.1293300076038,POINT (-71.1293300076038 42.2870097917241)
"South Street Group, Inc.",02/20/2015 12:00:00 AM,12/31/2016 12:00:00 AM,CV7ALN,CV7ALN - Neighborhood Restricted,0,753,  South ST,"(42.287196, -71.129241)",42.288004250741075,-71.13090704781409,POINT (-71.13090704781409 42.28800425074107)
DEV CORP.,11/22/2013 12:00:00 AM,12/31/2016 12:00:00 AM,CV7AL,CV7 All Alc.,120,332,  Washington ST,"(42.348878, -71.152342)",42.3488821,-71.1523300455049,POINT (-71.1523300455049 42.3488821)
"EFTSROT, LLC",11/20/2013 12:00:00 AM,12/31/2016 12:00:00 AM,CV7MW,CV7 Malt Wine,72,23,  Tyler ST,"(42.350724, -71.060979)",42.24623370000001,-71.12499364722144,POINT (-71.12499364722144 42.24623370000001)
"DICK'S LAST RESORT OF BOSTON,LLC",11/21/2013 12:00:00 AM,12/31/2016 12:00:00 AM,CV7AL,CV7 All Alc.,138,100,  Faneuil Hall SQ,"(42.360131, -71.054954)",42.3601809,-71.056504,POINT (-71.056504 42.3601809)
955 LLC,11/25/2013 12:00:00 AM,12/31/2016 12:00:00 AM,CV7AL,CV7 All Alc.,264,951,  Boylston ST,"(42.348051, -71.085767)",42.3480905862069,-71.08515086206897,POINT (-71.08515086206897 42.3480905862069)
COBBAGE RESTAURANT CORP.,12/02/2013 12:00:00 AM,12/31/2016 12:00:00 AM,CV7MW,CV7 Malt Wine,18,141,  Salem ST,"(42.365059, -71.055378)",42.365109999999994,-71.05534499999999,POINT (-71.05534499999999 42.36510999999999)
"SS INVESTMENTS, INC.",11/14/2013 12:00:00 AM,12/31/2016 12:00:00 AM,CV7MW,CV7 Malt Wine,49,222,  Newbury ST,"(42.34975, -71.08108)",42.349752200000005,-71.0810802,POINT (-71.0810802 42.3497522)
"DONATO & GIANNI, LLC",11/29/2013 12:00:00 AM,12/31/2016 12:00:00 AM,CV7AL,CV7 All Alc.,116,326,  Commercial ST,"(42.3654, -71.05142)",42.36533323076923,-71.0512136923077,POINT (-71.0512136923077 42.36533323076923)
"AC NEP, LLC",11/14/2013 12:00:00 AM,12/31/2016 12:00:00 AM,CV7AL,CV7 All Alc.,264,367,  Neponset AV,"(42.2867, -71.04513)",42.286999476395,-71.04568989517531,POINT (-71.04568989517531 42.286999476395)
"Pavan Restaurant Group, Inc.",11/13/2013 12:00:00 AM,12/31/2016 12:00:00 AM,CV7MWL,CV7 Malt Wine Liq.,49,316, Newbury St,"(42.34862, -71.085413)",42.348611600000005,-71.08541190000001,POINT (-71.08541190000001 42.34861160000001)
"DOT TAVERN, INC.",11/26/2013 12:00:00 AM,12/31/2016 12:00:00 AM,CV7AL,CV7 All Alc.,99,840,  Dorchester AV,"(42.322159, -71.056601)",42.32214525,-71.05659537498019,POINT (-71.05659537498019 42.32214525)
"OCEAN TREASURE, INC.",11/25/2013 12:00:00 AM,12/31/2016 12:00:00 AM,CV7MW,CV7 Malt Wine,127,84,  Harrison AV,"(42.350806, -71.061206)",42.33461717346939,-71.07523198979592,POINT (-71.07523198979592 42.33461717346939)
BEAU GESTE XXV LLC,11/12/2013 12:00:00 AM,12/31/2016 12:00:00 AM,INNAL,Inn. All Alc.,0,400,  Soldiers Field RD,"(42.36002, -71.11832)",42.3602992,-71.11815850541062,POINT (-71.11815850541062 42.3602992)
"SPELLBURKE, INC.",11/26/2013 12:00:00 AM,12/31/2016 12:00:00 AM,CV7AL,CV7 All Alc.,265,3484,  Washington ST,"(42.30644, -71.10723)",42.30657070000001,-71.1072478,POINT (-71.1072478 42.30657070000001)
"RENDON FOODS, INC.",11/06/2013 12:00:00 AM,12/31/2016 12:00:00 AM,CV7AL,CV7 All Alc.,56,182,  Sumner ST,"(42.369371, -71.040322)",42.369256,-71.040392,POINT (-71.040392 42.369256)
"ROSSMORE CAFE, INC.",11/27/2013 12:00:00 AM,12/31/2016 12:00:00 AM,CV7AL,CV7 All Alc.,86,3520,  Washington ST,"(42.305511, -71.108121)",42.30573388888889,-71.10807755555554,POINT (-71.10807755555554 42.30573388888889)
"DUMPLING GOURMET, INC.",11/26/2013 12:00:00 AM,12/31/2016 12:00:00 AM,CV7MW,CV7 Malt Wine,56,52,  Beach ST,"(42.35152, -71.06065)",42.351497200000004,-71.06056,POINT (-71.06056 42.3514972)
SOMERS FIVE CORP.,11/27/2013 12:00:00 AM,12/31/2016 12:00:00 AM,CV7AL,CV7 All Alc.,46,108,  Blackstone ST,"(42.361696, -71.056576)",42.3616934,-71.0565718,POINT (-71.0565718 42.3616934)
"REBECCA'S CAFÃ‰, INC.",11/26/2013 12:00:00 AM,12/31/2016 12:00:00 AM,CV7AL,CV7 All Alc.,400,212, Northern Av,"(42.350415, -71.038224)",42.3518965,-71.03742640000002,POINT (-71.03742640000002 42.3518965)
"TKL,INC.",11/25/2013 12:00:00 AM,12/31/2016 12:00:00 AM,CV7AL,CV7 All Alc.,156,25,  Beach ST,"(42.351311, -71.06182)",42.30215652599657,-71.05511494032613,POINT (-71.05511494032613 42.30215652599657)
"ESHL, LLC",11/26/2013 12:00:00 AM,12/31/2016 12:00:00 AM,CV7AL,CV7 All Alc.,398,528,  Commonwealth AV,"(42.348498, -71.09622)",42.3485601,-71.0961765,POINT (-71.0961765 42.3485601)
SAINT DECLAN CORPORATION,11/20/2013 12:00:00 AM,12/31/2016 12:00:00 AM,CV7AL,CV7 All Alc.,249,1883,  Centre ST,"(42.28595, -71.15582)",42.28592875,-71.15584125658722,POINT (-71.15584125658722 42.28592875)
"EATALY BOSTON, LLC",11/27/2013 12:00:00 AM,12/31/2016 12:00:00 AM,CV7AL,CV7 All Alc.,0,800,  Boylston ST,"(42.34716, -71.08251)",42.3471718,-71.08250628733232,POINT (-71.08250628733232 42.3471718)
"CONTILLI'S, INC.",11/22/2013 12:00:00 AM,12/31/2016 12:00:00 AM,CV7AL,CV7 All Alc.,92,34,  Maverick SQ,"(42.369961, -71.039351)",42.3699196,-71.03928309999999,POINT (-71.03928309999999 42.3699196)
SIRAJ CORPORATION,11/27/2013 12:00:00 AM,12/31/2016 12:00:00 AM,CV7MWL,CV7 Malt Wine Liq.,45,474,  Shawmut AV,"(42.338556, -71.075908)",42.338584999999995,-71.07600716666667,POINT (-71.07600716666667 42.33858499999999)
EC RESTAURANTS (BOSTON) CORP.,11/26/2013 12:00:00 AM,12/31/2016 12:00:00 AM,CV7AL,CV7 All Alc.,290,161,  Devonshire ST,"(42.356286, -71.0575)",42.35621079999999,-71.0575678664855,POINT (-71.0575678664855 42.35621079999999)
"ELIOT HOTEL, INC.",11/27/2013 12:00:00 AM,12/31/2016 12:00:00 AM,INNAL,Inn. All Alc.,0,370,  Commonwealth AV,"(42.34859, -71.08869)",42.34867,-71.0886532,POINT (-71.0886532 42.34867)
"AIMBRIDGE HOSPITALITY, LLC",11/19/2013 12:00:00 AM,12/31/2016 12:00:00 AM,INNAL,Inn. All Alc.,0,207, Porter St,"(42.370435, -71.031732)",42.3701473,-71.03183278759124,POINT (-71.03183278759124 42.3701473)
EMERSON COLLEGE,10/01/2013 12:00:00 AM,12/31/2016 12:00:00 AM,GOPMWL,GOP Malt Wine Liq.,1157,219,  Tremont ST,"(42.35157, -71.06502)",42.3515489,-71.06510392722366,POINT (-71.06510392722366 42.3515489)
"EQUATOR, INC.",11/27/2013 12:00:00 AM,12/31/2016 12:00:00 AM,CV7MW,CV7 Malt Wine,49,1721,  Washington ST,"(42.337071, -71.076601)",42.2620157,-71.15640570000001,POINT (-71.15640570000001 42.2620157)
"LIBELLULA, LLC",11/21/2013 12:00:00 AM,12/31/2016 12:00:00 AM,CV7MWLR,CV7 Malt Wine Liq. Restrict.,185,69,  Church ST,"(42.35015, -71.06839)",42.24981596153847,-71.13387138461538,POINT (-71.13387138461538 42.24981596153847)
"GAMBROS, INC.",11/15/2013 12:00:00 AM,12/31/2016 12:00:00 AM,CV7MW,CV7 Malt Wine,40,69,  Salem ST,"(42.36335, -71.05584)",42.3633795,-71.0559078,POINT (-71.0559078 42.3633795)
"CENTER HOUSE OF PIZZA, INC.",11/29/2013 12:00:00 AM,12/31/2016 12:00:00 AM,CV7MW,CV7 Malt Wine,44,344,  Washington ST,"(42.348864, -71.152918)",42.299519000000004,-71.07365899999999,POINT (-71.07365899999999 42.299519)
"BIG TIME BOSTON FOOD, INC.",07/29/2015 12:00:00 AM,12/31/2016 12:00:00 AM,CV7ALN,CV7ALN - Neighborhood Restricted,108,700,  Harrison AV,"(42.338319, -71.070696)",42.338636,-71.07039499999999,POINT (-71.07039499999999 42.338636)
"CILL DARA, INC.",11/25/2013 12:00:00 AM,12/31/2016 12:00:00 AM,CV7AL,CV7 All Alc.,81,3700,  Washington ST,"(42.30053, -71.112809)",42.3005521,-71.1128599,POINT (-71.1128599 42.3005521)
Buckminster Restaurant Group LLC,11/20/2013 12:00:00 AM,12/31/2016 12:00:00 AM,CV7MWL,CV7 Malt Wine Liq.,90,645,  Beacon ST,"(42.348363, -71.097697)",42.34836865,-71.09774694105823,POINT (-71.09774694105823 42.34836865)
"OLIVES, INC.",11/25/2013 12:00:00 AM,12/31/2016 12:00:00 AM,CV7MW,CV7 Malt Wine,42,42,  Charles ST,"(42.357234, -71.070195)",42.3572305,-71.0701821,POINT (-71.0701821 42.3572305)
"OLIVES, INC.",11/25/2013 12:00:00 AM,12/31/2016 12:00:00 AM,CV7MW,CV7 Malt Wine,59,67,  Main ST,"(42.373647, -71.06239)",42.3736375,-71.062397,POINT (-71.062397 42.3736375)
"VIA VENETO RESTAURANT, INC.",11/26/2013 12:00:00 AM,12/31/2016 12:00:00 AM,CV7AL,CV7 All Alc.,272,283,  Causeway ST,"(42.366963, -71.05818)",42.366975,-71.058327,POINT (-71.05832700000001 42.366975)
FINS SUSHI & GRILL,11/15/2013 12:00:00 AM,12/31/2016 12:00:00 AM,CV7MW,CV7 Malt Wine,78,354,  Chestnut Hill AV,"(42.33691, -71.15157)",42.3368637,-71.15165019999999,POINT (-71.15165019999999 42.3368637)
"Bento Express, Inc.",07/13/2015 12:00:00 AM,12/31/2016 12:00:00 AM,CV7MWR,CV7 Malt Wine Restrict.,45,62,  Boylston ST,"(42.35199, -71.06439)",42.352238899999996,-71.0644358,POINT (-71.0644358 42.3522389)
"OMEGA SUSHI, INC.",11/18/2013 12:00:00 AM,12/31/2016 12:00:00 AM,CV7MW,CV7 Malt Wine,60,236,  Cambridge ST,"(42.360991, -71.066822)",42.360975,-71.06682341691773,POINT (-71.06682341691773 42.360975)
"ROUND GRILLE SERVICES, INC.",11/15/2013 12:00:00 AM,12/31/2016 12:00:00 AM,CV7AL,CV7 All Alc.,375,31,  Saint James AV,"(42.351109, -71.07458)",42.3509401,-71.0717712,POINT (-71.0717712 42.3509401)
"JNK, INC.",11/29/2013 12:00:00 AM,12/31/2016 12:00:00 AM,CV7MW,CV7 Malt Wine,19,170,  Brighton AV,"(42.352902, -71.132981)",42.35288880469564,-71.13231554916752,POINT (-71.13231554916752 42.35288880469564)
"LLOB ASSOCIATES, LLC",11/08/2013 12:00:00 AM,12/31/2016 12:00:00 AM,CV7MWL,CV7 Malt Wine Liq.,74,533,  Columbus AV,"(42.34186, -71.08059)",42.34174866666667,-71.080506,POINT (-71.080506 42.34174866666667)
"Lucky Five Restaruant, Inc.",11/22/2013 12:00:00 AM,12/31/2016 12:00:00 AM,CV7MW,CV7 Malt Wine,78,58,  Beach ST,"(42.35148, -71.06045)",42.301217799999996,-71.05484010581738,POINT (-71.05484010581738 42.3012178)
"FLAMES RESTAURANT II, INC.",11/19/2013 12:00:00 AM,12/31/2016 12:00:00 AM,CV7MWR,CV7 Malt Wine Restrict.,40,746,  Huntington AV,"(42.33363, -71.10549)",42.33393818455895,-71.10550655048,POINT (-71.10550655048 42.33393818455895)
"KITTY O'SHEA'S, INC.",11/19/2013 12:00:00 AM,12/31/2016 12:00:00 AM,CV7AL,CV7 All Alc.,90,1619,  Tremont ST,"(42.333842, -71.103341)",42.333789,-71.10341,POINT (-71.10341 42.333789)
"THE FLORIAN ASSOCIATES, INC.",11/14/2013 12:00:00 AM,12/31/2016 12:00:00 AM,CV7AL,CV7 All Alc.,689,55,  Hallet ST,"(42.282376, -71.047658)",42.28240395,-71.0476333651287,POINT (-71.0476333651287 42.28240395)
"BNV 4, INC.",11/19/2013 12:00:00 AM,12/31/2016 12:00:00 AM,CV7AL,CV7 All Alc.,312,755,  Boylston ST,"(42.34938, -71.0811)",42.3493339,-71.0810065,POINT (-71.0810065 42.3493339)
"FOUR SEASONS OF MASSACHUSETTS, INC.",11/26/2013 12:00:00 AM,12/31/2016 12:00:00 AM,INNAL,Inn. All Alc.,0,200,  Boylston ST,"(42.35221, -71.06809)",42.35204985,-71.06813602937328,POINT (-71.06813602937328 42.35204985)
"BOSTON FOUR WINDS, INC.",11/27/2013 12:00:00 AM,12/31/2016 12:00:00 AM,CV7AL,CV7 All Alc.,160,266,  Commercial ST,"(42.36432, -71.05135)",42.36430615,-71.05135213672726,POINT (-71.05135213672726 42.36430615)
"VILLA FRANCESCA'S, INC.",11/25/2013 12:00:00 AM,12/31/2016 12:00:00 AM,CV7AL,CV7 All Alc.,129,150,  Richmond ST,"(42.363348, -71.054559)",42.36331360000001,-71.054464,POINT (-71.054464 42.36331360000001)
"SOUTH END BERKELEY, LLC",11/15/2013 12:00:00 AM,12/31/2016 12:00:00 AM,CV7AL,CV7 All Alc.,239,560,  Harrison AV,"(42.34081, -71.06744)",42.3409422,-71.06733259999999,POINT (-71.06733259999999 42.3409422)
BIG NIGHT VENUES BOSTON 3 LLC,11/25/2013 12:00:00 AM,12/31/2016 12:00:00 AM,CV7AL,CV7 All Alc.,244,44, Province St,"(42.356871, -71.059919)",42.3567935,-71.06003079999999,POINT (-71.06003079999999 42.3567935)
"5 NORTH SQUARE, INC.",11/22/2013 12:00:00 AM,12/31/2016 12:00:00 AM,CV7AL,CV7 All Alc.,103,5,  North SQ,"(42.36399, -71.05357)",42.3640061,-71.05355240000002,POINT (-71.05355240000002 42.3640061)
COLUMBUS CORPORATION,11/13/2013 12:00:00 AM,12/31/2016 12:00:00 AM,CV7MWL,CV7 Malt Wine Liq.,39,431,  Columbus AV,"(42.344074, -71.077812)",42.3441327,-71.0774061,POINT (-71.0774061 42.3441327)
"NEW HOUSE OF TOY, INC.",11/15/2013 12:00:00 AM,12/31/2016 12:00:00 AM,CV7MW,CV7 Malt Wine,110,14, Hudson St,"(42.350621, -71.059908)",42.35069045454546,-71.059955,POINT (-71.059955 42.35069045454546)
"CANTONA, INC.",11/22/2013 12:00:00 AM,12/31/2016 12:00:00 AM,CV7AL,CV7 All Alc.,122,565,  Boylston ST,"(42.350654, -71.076368)",42.35061279999999,-71.0763406,POINT (-71.07634059999999 42.35061279999999)
TRIPLE EIGHT MANAGEMENT CORP.,11/25/2013 12:00:00 AM,12/31/2016 12:00:00 AM,CV7MW,CV7 Malt Wine,300,20, Hudson St,"(42.350406, -71.059976)",42.3504062,-71.05996653519512,POINT (-71.05996653519512 42.3504062)
"BUCCINO INVESTMENTS, LLC",11/27/2013 12:00:00 AM,12/31/2016 12:00:00 AM,CV7AL,CV7 All Alc.,176,28, Kingston St,"(42.35344, -71.05904)",42.3533994,-71.0591955,POINT (-71.0591955 42.3533994)
"KLK3, INC.",11/22/2013 12:00:00 AM,12/31/2016 12:00:00 AM,CV7MWL,CV7 Malt Wine Liq.,19,605,  Centre ST,"(42.31478, -71.114279)",42.2978789,-71.13028249999999,POINT (-71.13028249999999 42.2978789)
"KKCB, LLC",03/17/2016 12:00:00 AM,12/31/2016 12:00:00 AM,CV7ALN,CV7ALN - Neighborhood Restricted,70,3698,  Washington ST,"(42.300583, -71.112757)",42.300611100000005,-71.1128068,POINT (-71.1128068 42.3006111)
"MONTGOMERY, INC.",11/19/2013 12:00:00 AM,12/31/2016 12:00:00 AM,CV7AL,CV7 All Alc.,240,1222,  Commonwealth AV,"(42.350727, -71.13097)",42.350178938702214,-71.13052005478087,POINT (-71.13052005478087 42.35017893870221)
"JOHN J. SOMERS CO.,INC.",11/27/2013 12:00:00 AM,12/31/2016 12:00:00 AM,CV7AL,CV7 All Alc.,149,11,  Marshall ST,"(42.361469, -71.056839)",42.3615079,-71.05686170000001,POINT (-71.05686170000001 42.3615079)
"SARKIS, INC.",03/14/2014 12:00:00 AM,12/31/2016 12:00:00 AM,CV7MWLR,CV7 Malt Wine Liq. Restrict.,48,705,  Massachusetts AV,"(42.33487, -71.07545)",42.335765015625,-71.0758537890625,POINT (-71.07585378906251 42.335765015625)
"GROTTO, INC.",11/27/2013 12:00:00 AM,12/31/2016 12:00:00 AM,CV7MWL,CV7 Malt Wine Liq.,47,37,  Bowdoin ST,"(42.35991, -71.063085)",42.35991679999999,-71.0630117,POINT (-71.0630117 42.35991679999999)
"GUIRA & TAMBORA, LLC",11/15/2013 12:00:00 AM,12/31/2016 12:00:00 AM,CV7MW,CV7 Malt Wine,49,4014,  Washington ST,"(42.291827, -71.122157)",42.29184650000001,-71.12214082840909,POINT (-71.12214082840909 42.29184650000001)
"HARD ROCK CAFE INTERNATIONAL (STP), INC.",11/26/2013 12:00:00 AM,12/31/2016 12:00:00 AM,CV7AL,CV7 All Alc.,680,20,  Clinton ST,"(42.360961, -71.054946)",42.36077388711886,-71.05534748676453,POINT (-71.05534748676453 42.36077388711886)
"142 Berkeley, LLC",11/27/2013 12:00:00 AM,12/31/2016 12:00:00 AM,CV7AL,CV7 All Alc.,153,142,  Berkeley ST,"(42.348822, -71.072098)",42.3489076,-71.07213780000001,POINT (-71.07213780000001 42.3489076)
HARU PRUDENTIAL CORP.,11/29/2013 12:00:00 AM,12/31/2016 12:00:00 AM,CV7AL,CV7 All Alc.,195,800,  Boylston ST,"(42.347296, -71.081457)",42.3471718,-71.08250628733232,POINT (-71.08250628733232 42.3471718)
"BEACON FINE DINING, INC.",11/26/2013 12:00:00 AM,12/31/2016 12:00:00 AM,CV7AL,CV7 All Alc.,190,310,  Cambridge ST,"(42.36093, -71.06901)",42.3609461,-71.06893574012605,POINT (-71.06893574012605 42.3609461)
"88 BEACH, LLC",11/26/2013 12:00:00 AM,12/31/2016 12:00:00 AM,CV7MW,CV7 Malt Wine,625,88,  Beach ST,"(42.351328, -71.059821)",42.351060700000005,-71.0588241,POINT (-71.0588241 42.3510607)
"SOMERS BOSTON RESTAURANTS, INC.",11/27/2013 12:00:00 AM,12/31/2016 12:00:00 AM,CV7AL,CV7 All Alc.,582,25,  Union ST,"(42.361014, -71.056731)",42.345170206226,-71.14832687182889,POINT (-71.14832687182889 42.345170206226)
"HILL COUNTRY BOSTON, LLC",11/18/2013 12:00:00 AM,12/31/2016 12:00:00 AM,CV7AL,CV7 All Alc.,0,374, Congress St,"(42.34993, -71.04741)",42.350053499999994,-71.04733567853867,POINT (-71.04733567853867 42.35005349999999)
"HILLSTONE RESTAURANT GROUP, INC.",11/19/2013 12:00:00 AM,12/31/2016 12:00:00 AM,CV7AL,CV7 All Alc.,206,60,  State ST,"(42.35927, -71.05643)",42.35922935,-71.05642886016267,POINT (-71.05642886016267 42.35922935)
REMINGTON BOSTON EMPLOYERS LLC,11/26/2013 12:00:00 AM,12/31/2016 12:00:00 AM,INNAL,Inn. All Alc.,0,40,  Dalton ST,"(42.34645, -71.08526)",42.34641360000001,-71.08513717197609,POINT (-71.08513717197609 42.34641360000001)
"DIAMONDROCK BOSTON BROAD STREET TENANT, LLC",11/19/2013 12:00:00 AM,12/31/2016 12:00:00 AM,INNAL,Inn. All Alc.,0,89,  Broad ST,"(42.35744, -71.05316)",42.357333399999995,-71.05319195748316,POINT (-71.05319195748316 42.35733339999999)
SAGARMATHA CORPORATION,11/26/2013 12:00:00 AM,12/31/2016 12:00:00 AM,CV7MWR,CV7 Malt Wine Restrict.,49,1735,  Centre ST,"(42.287467, -71.149812)",42.2978789,-71.13028249999999,POINT (-71.13028249999999 42.2978789)
"HOJOKO, LLC",11/25/2013 12:00:00 AM,12/31/2016 12:00:00 AM,INNAL,Inn. All Alc.,0,1271, Boylston St,"(42.345316, -71.096927)",42.345338399999996,-71.09677978424416,POINT (-71.09677978424416 42.3453384)
"HOME RUN CAFE, INC.",11/29/2013 12:00:00 AM,12/31/2016 12:00:00 AM,CV7MWL,CV7 Malt Wine Liq.,88,1269,  Massachusetts AV,"(42.32146, -71.06264)",42.32150479999999,-71.0626138574059,POINT (-71.06261385740591 42.32150479999999)
"Hong Kong Eatery, Inc.",11/18/2013 12:00:00 AM,12/31/2016 12:00:00 AM,CV7MW,CV7 Malt Wine,60,79,  Harrison AV,"(42.35101, -71.06162)",42.336396877551024,-71.07216622448979,POINT (-71.07216622448979 42.33639687755102)
"HOT POT BUFFET, INC.",11/05/2013 12:00:00 AM,12/31/2016 12:00:00 AM,CV7MW,CV7 Malt Wine,288,70,  Beach ST,"(42.351353, -71.059891)",42.3513135,-71.0599233,POINT (-71.05992329999999 42.3513135)
"SAGE CLIENT 415, LLC",11/26/2013 12:00:00 AM,12/31/2016 12:00:00 AM,INNAL,Inn. All Alc.,0,500,  Commonwealth AV,"(42.348521, -71.095099)",42.348593,-71.0953263,POINT (-71.0953263 42.348593)
THAILAND INTERNATIONAL CORPORATION,11/21/2013 12:00:00 AM,12/31/2016 12:00:00 AM,CV7MW,CV7 Malt Wine,54,542,  Columbus AV,"(42.3414, -71.08034)",42.341099,-71.08088599999999,POINT (-71.08088599999999 42.341099)
"HIGH STREET RESTAURANT GROUP, LLC",11/29/2013 12:00:00 AM,12/31/2016 12:00:00 AM,CV7AL,CV7 All Alc.,540,184,  High ST,"(42.35668, -71.05257)",42.3565905,-71.0527728,POINT (-71.0527728 42.3565905)
"FRIAR VENTURES, LLC",11/25/2013 12:00:00 AM,12/31/2016 12:00:00 AM,CV7AL,CV7 All Alc.,699,150,  Canal ST,"(42.3648, -71.0608)",42.3648417,-71.0607328,POINT (-71.0607328 42.3648417)
"LASALLE HOTEL LESSEE, INC.",11/26/2013 12:00:00 AM,12/31/2016 12:00:00 AM,INNAL,Inn. All Alc.,0,101,  Harborside DR,"(42.359198, -71.027191)",42.35920815,-71.02721242674713,POINT (-71.02721242674713 42.35920815)
CHSP TRS BOSTON II LLC,11/21/2013 12:00:00 AM,12/31/2016 12:00:00 AM,INNAL,Inn. All Alc.,0,1, Avenue De Lafayette ,"(42.353254, -71.061258)",42.353404100000006,-71.0607712,POINT (-71.0607712 42.35340410000001)
ANTHONY OLIVIERO & LUIGI SODANO,11/25/2013 12:00:00 AM,12/31/2016 12:00:00 AM,CV7MW,CV7 Malt Wine,80,257,  North ST,"(42.363662, -71.051888)",42.363739,-71.05193,POINT (-71.05193 42.363739)
GAGAN CORPORATION,11/18/2013 12:00:00 AM,12/31/2016 12:00:00 AM,CV7MW,CV7 Malt Wine,58,484,  Commonwealth AV,"(42.34854, -71.09422)",42.348547499999995,-71.09423149999999,POINT (-71.09423149999999 42.3485475)
"INTERCONTINENTAL HOTELS GROUP RESOURCES, INC.",11/20/2013 12:00:00 AM,12/31/2016 12:00:00 AM,INNAL,Inn. All Alc.,0,500,  Atlantic AV,"(42.3541, -71.05228)",42.35410886486486,-71.05248864864865,POINT (-71.05248864864865 42.35410886486486)
"INTERMISSION TAVERN, INC.",11/27/2013 12:00:00 AM,12/31/2016 12:00:00 AM,CV7AL,CV7 All Alc.,64,228,  Tremont ST,"(42.351346, -71.064584)",42.35129675,-71.0647371875,POINT (-71.0647371875 42.35129675)
INTERNAL MATTER LLC,11/22/2013 12:00:00 AM,12/31/2016 12:00:00 AM,CV7MW,CV7 Malt Wine,45,35,  Channel Center ST,"(42.346397, -71.050561)",42.34635755,-71.05055905840756,POINT (-71.05055905840756 42.34635755)
IRASHAI SUSHI AND TERIYAKI INC.,11/26/2013 12:00:00 AM,12/31/2016 12:00:00 AM,CV7MW,CV7 Malt Wine,45,8, Kneeland St,"(42.351008, -71.062428)",42.351040399999995,-71.0628464,POINT (-71.0628464 42.3510404)
"MCLAUGHLIN RESTAURANT, INC.",12/01/2013 12:00:00 AM,12/31/2016 12:00:00 AM,CV7AL,CV7 All Alc.,85,25,  Park ST,"(42.3726, -71.06104)",42.28664615,-71.15892685729649,POINT (-71.15892685729649 42.28664615)
YONG SUN INC.,11/25/2013 12:00:00 AM,12/31/2016 12:00:00 AM,TAVAL,Tavern Licenses,67,1003, Massachusetts Av,"(42.32806, -71.06831)",42.3273801875,-71.06756234375001,POINT (-71.06756234375001 42.3273801875)
JONATHAN B. HARKER,11/14/2013 12:00:00 AM,12/31/2016 12:00:00 AM,CV7MWL,CV7 Malt Wine Liq.,30,336,  Sumner ST,"(42.367286, -71.035739)",42.36728975,-71.03572899569436,POINT (-71.03572899569436 42.36728975)
CARLOS GROUP LLC,11/20/2013 12:00:00 AM,12/31/2016 12:00:00 AM,CV7MW,CV7 Malt Wine,87,1414,  Commonwealth AV,"(42.348527, -71.139106)",42.34854179999999,-71.1391008,POINT (-71.13910079999999 42.34854179999999)
"J.P. SEAFOOD CAFÃ‰, INC.",11/26/2013 12:00:00 AM,12/31/2016 12:00:00 AM,CV7MWL,CV7 Malt Wine Liq.,75,730,  Centre ST,"(42.310802, -71.114458)",42.3108866,-71.11442579999999,POINT (-71.11442579999999 42.3108866)
"JACOB WIRTH RESTAURANT COMPANY, LLC",11/26/2013 12:00:00 AM,12/31/2016 12:00:00 AM,CV7AL,CV7 All Alc.,276,31,  Stuart ST,"(42.35126, -71.06375)",42.348285499999996,-71.0765335,POINT (-71.0765335 42.3482855)
"SAPA 2, LLC",11/12/2013 12:00:00 AM,12/31/2016 12:00:00 AM,CV7MWL,CV7 Malt Wine Liq.,49,1952,  Beacon ST,"(42.336326, -71.150238)",42.33633722986118,-71.14956091155625,POINT (-71.14956091155625 42.33633722986118)
"DA CROSSING, LLC",11/27/2013 12:00:00 AM,12/31/2016 12:00:00 AM,CV7AL,CV7 All Alc.,100,21,  Temple PL,"(42.3552, -71.06239)",42.355249799999996,-71.0623372,POINT (-71.0623372 42.3552498)
"BBRG WATERFRONT TR, LLC",11/25/2013 12:00:00 AM,12/31/2016 12:00:00 AM,CV7AL,CV7 All Alc.,384,100,  Atlantic AV,"(42.361967, -71.050671)",42.3621,-71.051048,POINT (-71.05104799999999 42.3621)
"BBRG NEWBURY TR, LLC",11/25/2013 12:00:00 AM,12/31/2016 12:00:00 AM,CV7AL,CV7 All Alc.,260,26,  Exeter ST,"(42.35061, -71.07967)",42.3506354,-71.0796392,POINT (-71.0796392 42.3506354)
LES NOUVEAUX RESTAURANTS LLC,11/27/2013 12:00:00 AM,12/31/2016 12:00:00 AM,CV7MWL,CV7 Malt Wine Liq.,95,468,  Commonwealth AV,"(42.34855, -71.09348)",42.34858490000001,-71.09348381471615,POINT (-71.09348381471615 42.34858490000001)
"PABLA BROS., INC.",11/20/2013 12:00:00 AM,12/31/2016 12:00:00 AM,CV7MWL,CV7 Malt Wine Liq.,76,279,  Newbury ST,"(42.34938, -71.084014)",42.3494102,-71.0838845,POINT (-71.0838845 42.3494102)
"KAY OASIS ENTERPRISES, INC.",11/22/2013 12:00:00 AM,12/31/2016 12:00:00 AM,CV7AL,CV7 All Alc.,500,1117,  Blue Hill AV,"(42.28635, -71.09111)",42.3048452,-71.0848265,POINT (-71.08482650000001 42.3048452)
"KBG, INC.",11/25/2013 12:00:00 AM,12/31/2016 12:00:00 AM,CV7AL,CV7 All Alc.,99,1410,  Centre ST,"(42.293937, -71.13618)",42.2978789,-71.13028249999999,POINT (-71.13028249999999 42.2978789)
"KELLEY SQUARE PUB, INC.",11/21/2013 12:00:00 AM,12/31/2016 12:00:00 AM,CV7AL,CV7 All Alc.,99,84,  Bennington ST,"(42.376231, -71.035629)",42.376191299999995,-71.0357131,POINT (-71.0357131 42.3761913)
THE KINGSTON GROUP LLC,12/02/2013 12:00:00 AM,12/31/2016 12:00:00 AM,CV7AL,CV7 All Alc.,248,25,  Kingston ST,"(42.35375, -71.05925)",42.35366932704966,-71.05916106000261,POINT (-71.05916106000261 42.35366932704966)
"KO CATERING AND PIES, LLC",11/18/2013 12:00:00 AM,12/31/2016 12:00:00 AM,CV7MW,CV7 Malt Wine,28,256,  Marginal ST,"(42.364227, -71.032549)",42.38603057142857,-71.02941071428572,POINT (-71.02941071428572 42.38603057142857)
SHIN HA CORPORATION,11/05/2013 12:00:00 AM,12/31/2016 12:00:00 AM,CV7MWL,CV7 Malt Wine Liq.,80,122,  Harvard AV,"(42.352431, -71.131711)",42.26014287755102,-71.12277771428572,POINT (-71.12277771428572 42.26014287755102)
"KOREAN FUSION, INC.",11/14/2013 12:00:00 AM,12/31/2016 12:00:00 AM,CV7AL,CV7 All Alc.,64,16,  North ST,"(42.360718, -71.056455)",42.3607111,-71.05645679667033,POINT (-71.05645679667033 42.3607111)
AOB CORP.,11/13/2013 12:00:00 AM,12/31/2016 12:00:00 AM,CV7MW,CV7 Malt Wine,36,108,  L ST,"(42.334052, -71.035091)",42.334123,-71.03523866666666,POINT (-71.03523866666666 42.334123)
"R.J.A. ENTERPRISES, INC.",11/25/2013 12:00:00 AM,12/31/2016 12:00:00 AM,CV7AL,CV7 All Alc.,125,112,  Salem ST,"(42.36455, -71.05571)",42.3645231,-71.0555925,POINT (-71.0555925 42.3645231)
"JULIO ESPANA, INDIVIDUAL",11/29/2013 12:00:00 AM,12/31/2015 12:00:00 AM,CV7MW,CV7 Malt Wine,19,290,  Bennington ST,"(42.379018, -71.02859)",42.37874623652772,-71.02864968709149,POINT (-71.02864968709149 42.37874623652772)
"BFAM, INC.",11/25/2013 12:00:00 AM,12/31/2016 12:00:00 AM,CV7AL,CV7 All Alc.,124,97,  Mount Vernon ST,"(42.35806, -71.06972)",42.3580849,-71.06973207653061,POINT (-71.06973207653061 42.3580849)
"GM RESTAURANT ENTERPRISES, INC.",11/22/2013 12:00:00 AM,12/31/2016 12:00:00 AM,CV7MWL,CV7 Malt Wine Liq.,80,19,  Bennington ST,"(42.375103, -71.037993)",42.3750686,-71.03794632147456,POINT (-71.03794632147456 42.3750686)
"RAFAEL E. VERAS, INDIVIDUAL",11/29/2013 12:00:00 AM,12/31/2016 12:00:00 AM,CV7MW,CV7 Malt Wine,32,302,  Centre ST,"(42.32273, -71.10325)",42.32270370000001,-71.10324874679398,POINT (-71.10324874679398 42.32270370000001)
WICKED COMEDY LLC,11/26/2013 12:00:00 AM,12/31/2016 12:00:00 AM,CV7AL,CV7 All Alc.,400,425,  Summer ST,"(42.346219, -71.043099)",42.3461583,-71.04330470000001,POINT (-71.04330470000001 42.3461583)
"LEGAL SEA FOODS, LLC",11/25/2013 12:00:00 AM,12/31/2016 12:00:00 AM,CV7AL,CV7 All Alc.,180,10,  City SQ,"(42.372275, -71.061689)",42.372155,-71.061687,POINT (-71.06168700000001 42.372155)
"LEGAL SEA FOODS, LLC",11/14/2013 12:00:00 AM,12/31/2016 12:00:00 AM,CV7AL,CV7 All Alc.,238,255,  State ST,"(42.359417, -71.051129)",42.35948320000001,-71.0514451,POINT (-71.0514451 42.35948320000001)
"LEGAL SEA FOODS, LLC",11/14/2013 12:00:00 AM,12/31/2016 12:00:00 AM,CV7AL,CV7 All Alc.,299,100, Huntington Av,"(42.34721, -71.0782)",42.346971,-71.079388,POINT (-71.07938799999999 42.346971)
"LEGAL SEAFOODS, LLC",11/14/2013 12:00:00 AM,12/31/2016 12:00:00 AM,CV7AL,CV7 All Alc.,351,800,  Boylston ST,"(42.347296, -71.081457)",42.3471718,-71.08250628733232,POINT (-71.08250628733232 42.3471718)
"THE LENOX HOTEL,L.L.C",11/22/2013 12:00:00 AM,12/31/2016 12:00:00 AM,INNAL,Inn. All Alc.,0,61,  Exeter ST,"(42.349129, -71.079618)",42.34912525,-71.07953245238066,POINT (-71.07953245238066 42.34912525)
"LE, INC.",12/02/2013 12:00:00 AM,12/31/2016 12:00:00 AM,CV7MW,CV7 Malt Wine,159,137,  Brighton AV,"(42.353116, -71.131381)",42.3530795,-71.1313038,POINT (-71.1313038 42.3530795)
IN VINO VERITAS BISTRO LLC,11/29/2013 12:00:00 AM,12/31/2016 12:00:00 AM,CV7AL,CV7 All Alc.,150,129,  South ST,"(42.351209, -71.057569)",42.351071000000005,-71.0575271,POINT (-71.0575271 42.351071)
"GEORGE'S RESTAURANT & LOUNGE, INC.",11/08/2013 12:00:00 AM,12/31/2016 12:00:00 AM,CV7MW,CV7 Malt Wine,134,323,  Washington ST,"(42.29983, -71.07452)",42.349123999999996,-71.15191899999999,POINT (-71.15191899999999 42.349124)
DON'T LOOK BACK LESSEE,11/18/2013 12:00:00 AM,12/31/2016 12:00:00 AM,INNAL,Inn. All Alc.,0,215,  Charles ST,"(42.36203, -71.070362)",42.3620681,-71.07015767249051,POINT (-71.07015767249051 42.3620681)
"W Entertainment Group, Inc.",11/19/2013 12:00:00 AM,12/31/2016 12:00:00 AM,CV7MW,CV7 Malt Wine,113,204,  Tremont ST,"(42.351757, -71.064491)",42.351815,-71.064586,POINT (-71.06458600000001 42.351815)
"RISTORANTE LIMONCELLO, INC.",11/25/2013 12:00:00 AM,12/31/2016 12:00:00 AM,CV7MWL,CV7 Malt Wine Liq.,120,190,  North ST,"(42.363379, -71.053961)",42.363481,-71.05341999999999,POINT (-71.05341999999999 42.363481)
"Lincoln Bar & Grill, Inc.",11/29/2013 12:00:00 AM,12/31/2016 12:00:00 AM,CV7AL,CV7 All Alc.,76,8,  Lincoln ST,"(42.358902, -71.146953)",42.3589249,-71.14698683525046,POINT (-71.14698683525046 42.3589249)
"LIQUID ART BOSTON, LLC",11/26/2013 12:00:00 AM,12/31/2016 12:00:00 AM,CV7AL,CV7 All Alc.,220,100,  Arlington ST,"(42.35002, -71.0695)",42.349938200000004,-71.06947734385473,POINT (-71.06947734385473 42.3499382)
"GEORGE BEST, INC.",11/22/2013 12:00:00 AM,12/31/2016 12:00:00 AM,CV7AL,CV7 All Alc.,355,903,  Boylston ST,"(42.348481, -71.084239)",42.3484206,-71.08420790000001,POINT (-71.08420790000001 42.3484206)
"TY RESTAURANT GROUP, INC.",11/26/2013 12:00:00 AM,12/31/2016 12:00:00 AM,CV7AL,CV7 All Alc.,99,991,  Bennington ST,"(42.386375, -71.007041)",42.385903369188725,-71.00866096001738,POINT (-71.00866096001738 42.38590336918872)
ASSOCIATES AND LEISURE ACTIVITIES LLC,11/21/2013 12:00:00 AM,12/31/2016 12:00:00 AM,CV7AL,CV7 All Alc.,1201,246,  Tremont ST,"(42.350688, -71.064668)",42.3507175,-71.0646947,POINT (-71.0646947 42.3507175)
"HAMACHI SERVERS, INC.",11/25/2013 12:00:00 AM,12/31/2016 12:00:00 AM,CV7AL,CV7 All Alc.,94,823,E Sixth ST,"(42.333112, -71.027318)",42.33333626785715,-71.026927875,POINT (-71.026927875 42.33333626785715)
"LOCALE, INC.",11/26/2013 12:00:00 AM,12/31/2016 12:00:00 AM,CV7MW,CV7 Malt Wine,18,350,  Hanover ST,"(42.36512, -71.05339)",42.364999,-71.05339616666666,POINT (-71.05339616666666 42.364999)
"Broadway Restaurant, LLC",11/25/2013 12:00:00 AM,12/31/2016 12:00:00 AM,CV7AL,CV7 All Alc.,177,412,W Broadway ,"(42.337039, -71.047689)",42.337053600000004,-71.0477128,POINT (-71.0477128 42.3370536)
"BROOK EGG FARM, INC.",11/26/2013 12:00:00 AM,12/31/2016 12:00:00 AM,CV7MWL,CV7 Malt Wine Liq.,99,116,  Salem ST,"(42.364676, -71.055658)",42.364682,-71.055614,POINT (-71.05561400000001 42.364682)
"LBV HOTEL, LLC",11/15/2013 12:00:00 AM,12/31/2016 12:00:00 AM,INNAL,Inn. All Alc.,0,154,  Berkeley ST,"(42.349158, -71.072431)",42.3491759,-71.07246182171238,POINT (-71.07246182171238 42.3491759)
"LOLITA BOSTON, LLC",11/27/2013 12:00:00 AM,12/31/2016 12:00:00 AM,CV7AL,CV7 All Alc.,243,271,  Dartmouth ST,"(42.35068, -71.077361)",42.350685299999995,-71.0774037,POINT (-71.0774037 42.35068529999999)
LONGWOOD HOTEL CORP.,11/25/2013 12:00:00 AM,12/31/2016 12:00:00 AM,INNAL,Inn. All Alc.,0,342,  Longwood AV,"(42.338216, -71.106561)",42.338238,-71.106273,POINT (-71.106273 42.338238)
"IPSWICH ENTERTAINMENT, INC.",11/26/2013 12:00:00 AM,12/31/2016 12:00:00 AM,CV7AL,CV7 All Alc.,267,1,  Lansdowne ST,"(42.347312, -71.094489)",42.3473311,-71.0945338,POINT (-71.09453379999999 42.3473311)
"LOS ARRIEROS RESTAURANT, INC.",11/27/2013 12:00:00 AM,12/31/2016 12:00:00 AM,CV7MWL,CV7 Malt Wine Liq.,39,13,  Meridian ST,"(42.370601, -71.038751)",42.370453714285716,-71.03886914285717,POINT (-71.03886914285717 42.37045371428572)
"LEGAL SEA FOODS, LLC",11/14/2013 12:00:00 AM,12/31/2016 12:00:00 AM,CV7AL,CV7 All Alc.,166,225, Northern Av,"(42.348075, -71.039263)",42.348660714285714,-71.03876920408162,POINT (-71.03876920408162 42.34866071428571)
"LUCCA HOLDINGS, INC.",11/19/2013 12:00:00 AM,12/31/2016 12:00:00 AM,CV7AL,CV7 All Alc.,200,116,  Huntington AV,"(42.34651, -71.07976)",42.346723600000004,-71.0796355,POINT (-71.07963549999999 42.3467236)
DONATO DONATO GIANNI LLC,11/26/2013 12:00:00 AM,12/31/2016 12:00:00 AM,CV7AL,CV7 All Alc.,190,415,  Hanover ST,"(42.365578, -71.052718)",42.3674460240469,-71.05249472062498,POINT (-71.05249472062498 42.3674460240469)
"CONGRESS FINE DINING, LLC",11/26/2013 12:00:00 AM,12/31/2016 12:00:00 AM,CV7AL,CV7 All Alc.,240,355,  Congress ST,"(42.350051, -71.04848)",42.350181,-71.04844,POINT (-71.04844 42.350181)
LYRIC STAGE COMPANY,10/01/2013 12:00:00 AM,12/31/2016 12:00:00 AM,GOPMW,GOP Malt Wine,244,140,  Clarendon ST,"(42.348611, -71.074438)",42.34859005263158,-71.07430336842106,POINT (-71.07430336842106 42.34859005263158)
MAGGIANO'S HOLDING CORPORATION,11/18/2013 12:00:00 AM,12/31/2016 12:00:00 AM,CV7AL,CV7 All Alc.,480,4,  Columbus AV,"(42.351222, -71.068209)",42.351309854166665,-71.0683314375,POINT (-71.06833143750001 42.35130985416667)
"PANDA SPICY POT, INC.",11/29/2013 12:00:00 AM,12/31/2016 12:00:00 AM,CV7MW,CV7 Malt Wine,43,129,  Brighton AV,"(42.353088, -71.131119)",42.352825,-71.13180078571429,POINT (-71.13180078571429 42.352825)
"BUCCELLATI, INC.",11/27/2013 12:00:00 AM,12/31/2016 12:00:00 AM,CV7AL,CV7 All Alc.,76,3,  North SQ,"(42.36407, -71.05331)",42.36406940000001,-71.05331730839484,POINT (-71.05331730839484 42.36406940000001)
"JUAN REYES, INDIVIDUAL",11/13/2013 12:00:00 AM,12/31/2016 12:00:00 AM,CV7MW,CV7 Malt Wine,19,381,  Centre ST,"(42.322337, -71.10927)",42.29471595,-71.05739659999999,POINT (-71.05739659999999 42.29471595)
JPC VENTURE CORP.,11/25/2013 12:00:00 AM,12/31/2016 12:00:00 AM,CV7AL,CV7 All Alc.,607,21,  Broad ST,"(42.358443, -71.054658)",42.358829,-71.05455638461537,POINT (-71.05455638461537 42.358829)
MARRIOTT'S RESORTS HOSPITALITY CORPORATION,11/08/2013 12:00:00 AM,12/31/2016 12:00:00 AM,CV7AL,CV7 All Alc.,205,3,  McKinley SQ,"(42.35904, -71.05356)",42.35908010000001,-71.0536495,POINT (-71.05364950000001 42.35908010000001)
"MARRIOTT HOTEL SERVICES, INC.",11/25/2013 12:00:00 AM,12/31/2016 12:00:00 AM,INNAL,Inn. All Alc.,0,296,  State ST,"(42.36012, -71.05091)",42.35965204166667,-71.05107704166666,POINT (-71.05107704166666 42.35965204166667)
MARU LLC,11/20/2013 12:00:00 AM,12/31/2016 12:00:00 AM,CV7MW,CV7 Malt Wine,45,10,  Huntington AV,"(42.348545, -71.077314)",42.3351382,-71.10366982751569,POINT (-71.10366982751569 42.3351382)
"MONDAY MORNING, INC",11/26/2013 12:00:00 AM,12/31/2016 12:00:00 AM,GOPAL,GOP All Alc.,200,1937,  Beacon ST,"(42.335909, -71.149245)",42.3359182,-71.1492734,POINT (-71.1492734 42.3359182)
MASSACHUSETTS CONVENTION CENTER AUTHORITY,11/26/2013 12:00:00 AM,12/31/2016 12:00:00 AM,CV7AL,CV7 All Alc.,25000,415, Summer St,"(42.344449, -71.044821)",42.347339337055345,-71.04448519024899,POINT (-71.04448519024899 42.34733933705535)
"MASSIMINO'S CUCINA ITALIANA,INC.",11/20/2013 12:00:00 AM,12/31/2016 12:00:00 AM,CV7AL,CV7 All Alc.,48,205,  Endicott ST,"(42.36652, -71.05788)",42.36644705452033,-71.05785024361627,POINT (-71.05785024361627 42.36644705452033)
"45 PROVINCE RESTAURANT, LLC",11/26/2013 12:00:00 AM,12/31/2016 12:00:00 AM,CV7AL,CV7 All Alc.,120,45, Province St,"(42.357037, -71.06017)",42.357051,-71.060062,POINT (-71.060062 42.357051)
LINDA C. LODDO,11/20/2013 12:00:00 AM,12/31/2016 12:00:00 AM,CV7MWL,CV7 Malt Wine Liq.,73,364,  Hanover ST,"(42.365393, -71.053271)",42.365389015459975,-71.05311253955162,POINT (-71.05311253955162 42.36538901545998)
"154 Maverick, LLC",03/31/2015 12:00:00 AM,12/31/2016 12:00:00 AM,CV7ALN,CV7ALN - Neighborhood Restricted,24,154,  Maverick ST,"(42.369908, -71.037913)",42.3698625,-71.037979,POINT (-71.03797900000001 42.3698625)
"MAX BRENNER BOYLSTON, INC.",11/18/2013 12:00:00 AM,12/31/2016 12:00:00 AM,CV7AL,CV7 All Alc.,143,745, Boylston St,"(42.349421, -71.080611)",42.349388700000006,-71.0808179,POINT (-71.0808179 42.34938870000001)
ARANGO CORPORATION,11/15/2013 12:00:00 AM,12/31/2016 12:00:00 AM,GOPAL,GOP All Alc.,91,411,  Chelsea ST,"(42.379899, -71.026814)",42.38028216943796,-71.02684516719131,POINT (-71.02684516719131 42.38028216943796)
MERENGUE CORP.,11/27/2013 12:00:00 AM,12/31/2016 12:00:00 AM,CV7MWL,CV7 Malt Wine Liq.,90,156,  Blue Hill AV,"(42.319179, -71.077549)",42.3048452,-71.0848265,POINT (-71.08482650000001 42.3048452)
NEW APPLETON LLC,11/26/2013 12:00:00 AM,12/31/2016 12:00:00 AM,CV7AL,CV7 All Alc.,159,1,  Appleton ST,"(42.346725, -71.069653)",42.346669,-71.069289,POINT (-71.069289 42.346669)
MFT CORP.,11/21/2013 12:00:00 AM,12/31/2016 12:00:00 AM,CV7AL,CV7 All Alc.,68,25,  Prince ST,"(42.364563, -71.05416)",42.36459317241379,-71.05424803448274,POINT (-71.05424803448274 42.36459317241379)
"ALTAMIRA BANQUETS, LLC",11/25/2013 12:00:00 AM,12/31/2016 12:00:00 AM,CV7MWL,CV7 Malt Wine Liq.,149,964,  Saratoga ST,"(42.38717, -71.0086)",42.387158,-71.00824,POINT (-71.00824 42.387158)
TRAIF CORP.,11/25/2013 12:00:00 AM,12/31/2016 12:00:00 AM,CV7AL,CV7 All Alc.,270,221,  Columbus AV,"(42.348248, -71.07269)",42.34822220454546,-71.07207986363636,POINT (-71.07207986363636 42.34822220454546)
"DUNBOY, INC.",11/26/2013 12:00:00 AM,12/31/2016 12:00:00 AM,CV7AL,CV7 All Alc.,258,27,  Columbus AV,"(42.351143, -71.068949)",42.35129320833333,-71.068655375,POINT (-71.06865537500001 42.35129320833333)
"MODEL CAFETERIA, INC.",11/26/2013 12:00:00 AM,12/31/2016 12:00:00 AM,CV7AL,CV7 All Alc.,96,1,N Beacon ST,"(42.353825, -71.137595)",42.332132,-71.158552,POINT (-71.158552 42.332132)
"MODERN PASTRY, INC.",11/19/2013 12:00:00 AM,12/31/2016 12:00:00 AM,CV7MWL,CV7 Malt Wine Liq.,19,257,  Hanover ST,"(42.363247, -71.054762)",42.363285999999995,-71.05487,POINT (-71.05486999999999 42.363286)
"THE PENA-MENDOZA GROUP, INC.",11/26/2013 12:00:00 AM,12/31/2016 12:00:00 AM,CV7AL,CV7 All Alc.,150,48,  Winter ST,"(42.355863, -71.061898)",42.35590910000001,-71.06196556326434,POINT (-71.06196556326434 42.35590910000001)
"CARMEN CARTAGENA RIVERA, INDIVIDUAL",11/25/2013 12:00:00 AM,12/31/2016 12:00:00 AM,CV7MW,CV7 Malt Wine,48,221,  Dudley ST,"(42.32837, -71.08064)",42.328425476796205,-71.08059522975203,POINT (-71.08059522975203 42.32842547679621)
"MOOGY'S SANDWICH SHOP, INC.",11/25/2013 12:00:00 AM,12/31/2016 12:00:00 AM,CV7MW,CV7 Malt Wine,76,154,  Chestnut Hill AV,"(42.341552, -71.154278)",42.341696,-71.15433383333334,POINT (-71.15433383333334 42.341696)
"MORTON'S OF CHICAGO/BOSTON SEAPORT, LLC",11/25/2013 12:00:00 AM,12/31/2016 12:00:00 AM,CV7AL,CV7 All Alc.,236,2,  Seaport LA,"(42.348928, -71.040843)",42.3502036,-71.0427412,POINT (-71.04274119999999 42.3502036)
"MOTHER ANNA'S, INC.",11/12/2013 12:00:00 AM,12/31/2016 12:00:00 AM,CV7AL,CV7 All Alc.,73,211,  Hanover ST,"(42.362698, -71.055309)",42.3627119,-71.0553276,POINT (-71.0553276 42.3627119)
THE SOMERS CORPORATION,11/27/2013 12:00:00 AM,12/31/2016 12:00:00 AM,CV7AL,CV7 All Alc.,99,77,  Broad ST,"(42.357643, -71.053639)",42.35766829999999,-71.0535739,POINT (-71.0535739 42.35766829999999)
"KPC, INC.",11/26/2013 12:00:00 AM,12/31/2016 12:00:00 AM,CV7AL,CV7 All Alc.,65,837,  Summer ST,"(42.338006, -71.03568)",42.338893341463425,-71.03562443902439,POINT (-71.03562443902439 42.33889334146343)
MUSEUM OF FINE ARTS,11/27/2013 12:00:00 AM,12/31/2016 12:00:00 AM,CV7AL,CV7 All Alc.,10630,465, Huntington Av,"(42.331977, -71.101647)",42.3394576,-71.0938964010892,POINT (-71.0938964010892 42.3394576)
"LEANY'S ENTERPRISE, INC.",11/27/2013 12:00:00 AM,12/31/2016 12:00:00 AM,CV7AL,CV7 All Alc.,179,1233,  Bennington ST,"(42.3899, -70.99673)",42.38987055,-70.99670575403705,POINT (-70.99670575403705 42.38987055)
ALASTY CORP.,11/25/2013 12:00:00 AM,12/31/2016 12:00:00 AM,CV7AL,CV7 All Alc.,96,4187,  Washington ST,"(42.287388, -71.127396)",42.28760781818182,-71.12702281818181,POINT (-71.12702281818181 42.28760781818182)
"NAVY YARD BISTRO, INC.",11/26/2013 12:00:00 AM,12/31/2016 12:00:00 AM,CV7MWL,CV7 Malt Wine Liq.,56,1,  First AV,"(42.372593, -71.057652)",42.3719314,-71.0513555621205,POINT (-71.05135556212051 42.3719314)
"NEPTUNE OYSTER, LLC",11/27/2013 12:00:00 AM,12/31/2016 12:00:00 AM,CV7MW,CV7 Malt Wine,30,63,  Salem ST,"(42.36323, -71.05594)",42.363327000000005,-71.055914,POINT (-71.055914 42.36332700000001)
"NEW GOLDEN GATE, INC.",11/18/2013 12:00:00 AM,12/31/2016 12:00:00 AM,CV7MWL,CV7 Malt Wine Liq.,72,66,  Beach ST,"(42.351383, -71.060028)",42.35136792307692,-71.06009476923077,POINT (-71.06009476923077 42.35136792307692)
ST ORIENTAL CORPORATION,11/26/2013 12:00:00 AM,12/31/2016 12:00:00 AM,CV7MW,CV7 Malt Wine,74,5,  Hudson ST,"(42.350966, -71.060128)",42.35104447058824,-71.06005605882352,POINT (-71.06005605882352 42.35104447058824)
"JIAN HUNG, INC.",11/25/2013 12:00:00 AM,12/31/2016 12:00:00 AM,CV7MW,CV7 Malt Wine,110,15,  Edinboro ST,"(42.352007, -71.059912)",42.35200795,-71.0599122241116,POINT (-71.0599122241116 42.35200795)
"NEWBURY GUEST HOUSE, INC.",11/21/2013 12:00:00 AM,12/31/2016 12:00:00 AM,INNAL,Inn. All Alc.,0,257,  Newbury ST,"(42.34966, -71.08314)",42.3496296,-71.0831181,POINT (-71.08311809999999 42.3496296)
"LOPERA, INC.",11/27/2013 12:00:00 AM,12/31/2016 12:00:00 AM,CV7AL,CV7 All Alc.,69,127,  Maverick ST,"(42.370207, -71.039361)",42.370229125,-71.0393740625,POINT (-71.0393740625 42.370229125)
"PAGA, INC.",11/21/2013 12:00:00 AM,12/31/2016 12:00:00 AM,CV7AL,CV7 All Alc.,420,100,  Warrenton ST,"(42.350776, -71.066229)",42.3506611,-71.0662113,POINT (-71.06621130000001 42.3506611)
"MARNICO, INC.",11/13/2013 12:00:00 AM,12/31/2016 12:00:00 AM,CV7MWL,CV7 Malt Wine Liq.,48,417,  Hanover ST,"(42.36564, -71.0527)",42.36636729999999,-71.05283490000001,POINT (-71.05283490000001 42.36636729999999)
"KHRG BOSTON HOTEL, LLC",11/27/2013 12:00:00 AM,12/31/2016 12:00:00 AM,INNAL,Inn. All Alc.,0,90,  Tremont ST,"(42.35745, -71.0607)",42.35737720000001,-71.0608377,POINT (-71.06083769999999 42.35737720000001)
"NINO INDICIANI, INDIVIDUAL",11/25/2013 12:00:00 AM,12/31/2016 12:00:00 AM,CV7MW,CV7 Malt Wine,24,79,  Charles ST,"(42.35838, -71.07042)",42.3583849,-71.0704297,POINT (-71.07042970000001 42.3583849)
"NO. 9 PARK, L.L.C.",11/22/2013 12:00:00 AM,12/31/2016 12:00:00 AM,CV7AL,CV7 All Alc.,120,9,  Park ST,"(42.35762, -71.06279)",42.3576412,-71.0629056,POINT (-71.06290559999999 42.3576412)
"Noodle Barn, Inc.",11/29/2013 12:00:00 AM,12/31/2016 12:00:00 AM,CV7MW,CV7 Malt Wine,58,707,  Centre ST,"(42.311433, -71.114661)",42.3114333,-71.1145883,POINT (-71.11458829999999 42.3114333)
PENA & NOVA CORP.,11/29/2013 12:00:00 AM,12/31/2016 12:00:00 AM,CV7AL,CV7 All Alc.,67,2801,  Washington ST,"(42.321695, -71.092196)",42.2620157,-71.15640570000001,POINT (-71.15640570000001 42.2620157)
"O YA, LLC",11/29/2013 12:00:00 AM,12/31/2016 12:00:00 AM,CV7ALR,CV7 All Alc. Restrict.,49,9,  East ST,"(42.35135, -71.05694)",42.35134145,-71.05691373695619,POINT (-71.05691373695619 42.35134145)
"OISHII, INC.",11/27/2013 12:00:00 AM,12/31/2016 12:00:00 AM,CV7ALR,CV7 All Alc. Restrict.,90,1166,  Washington ST,"(42.34333, -71.06601)",42.27246104277457,-71.06887449462646,POINT (-71.06887449462646 42.27246104277457)
"EMMANUEL GROUP, INC.",11/29/2013 12:00:00 AM,12/31/2016 12:00:00 AM,CV7MW,CV7 Malt Wine,54,297,  Chelsea ST,"(42.37699, -71.03023)",42.37698215,-71.03022810524901,POINT (-71.03022810524901 42.37698215)
"LHO ONYX ONE LESSEE, L.L.C.",11/22/2013 12:00:00 AM,12/31/2016 12:00:00 AM,INNAL,Inn. All Alc.,0,155,  Portland ST,"(42.36421, -71.06134)",42.36420135,-71.06135479193117,POINT (-71.06135479193117 42.36420135)
ORINOCO LLC,11/26/2013 12:00:00 AM,12/31/2016 12:00:00 AM,CV7MWL,CV7 Malt Wine Liq.,19,477,  Shawmut AV,"(42.338903, -71.075949)",42.33889175,-71.07588375,POINT (-71.07588375 42.33889175)
"GAINSBORO RESTAURANT, INC.",11/22/2013 12:00:00 AM,12/31/2016 12:00:00 AM,CV7AL,CV7 All Alc.,286,52, Gainsborough St,"(42.34173, -71.08722)",42.34213957924624,-71.08735635468227,POINT (-71.08735635468227 42.34213957924624)
"P. F. CHANG'S CHINA BISTRO, INC.",11/22/2013 12:00:00 AM,12/31/2016 12:00:00 AM,CV7AL,CV7 All Alc.,245,800,  Boylston ST,"(42.347296, -71.081457)",42.3471718,-71.08250628733232,POINT (-71.08250628733232 42.3471718)
"PAGLIUCA'S RESTAURANT, INC.",11/21/2013 12:00:00 AM,12/31/2016 12:00:00 AM,CV7MWL,CV7 Malt Wine Liq.,68,14, Parmenter St,"(42.36375, -71.05496)",42.363783900855154,-71.05500785444757,POINT (-71.05500785444757 42.36378390085515)
BAKED DAILY CORPORATION,11/22/2013 12:00:00 AM,12/31/2016 12:00:00 AM,CV7MW,CV7 Malt Wine,29,144,  Charles ST,"(42.35998, -71.071)",42.3599789,-71.0709685,POINT (-71.07096850000001 42.3599789)
SJJ CORP.,11/13/2013 12:00:00 AM,12/31/2016 12:00:00 AM,CV7MW,CV7 Malt Wine,45,326,  Hanover ST,"(42.364668, -71.05383)",42.36459961538462,-71.05377207692307,POINT (-71.05377207692307 42.36459961538462)
"PAPA RAZZI TRATTORIA OF NEWBURY, INC.",11/22/2013 12:00:00 AM,12/31/2016 12:00:00 AM,CV7AL,CV7 All Alc.,198,157,  Newbury ST,"(42.35089, -71.07854)",42.3508765,-71.07859391765685,POINT (-71.07859391765685 42.3508765)
"HCS, LLC",11/27/2013 12:00:00 AM,12/31/2016 12:00:00 AM,CV7AL,CV7 All Alc.,214,13,  West ST,"(42.35473, -71.06211)",42.38530034693877,-71.07382432653061,POINT (-71.07382432653061 42.38530034693877)
"OLD TRAFFORD, INC.",11/22/2013 12:00:00 AM,12/31/2016 12:00:00 AM,GOPAL,GOP All Alc.,999,967,  Commonwealth AV,"(42.352013, -71.119406)",42.351867600000006,-71.1194234,POINT (-71.1194234 42.35186760000001)
BEMA Restaurant Corporation,11/27/2013 12:00:00 AM,12/31/2016 12:00:00 AM,CV7AL,CV7 All Alc.,480,138,  Brighton AV,"(42.352761, -71.13179)",42.352779999999996,-71.13140414285714,POINT (-71.13140414285714 42.35278)
"MASSACHUSETTS SPORTSERVICE, INC.",11/27/2013 12:00:00 AM,12/31/2016 12:00:00 AM,CV7AL,CV7 All Alc.,98,100,  Legends WY,"(42.36629, -71.0622)",42.36628985,-71.06222575726521,POINT (-71.06222575726521 42.36628985)
"PEACH FARM, INC.",11/19/2013 12:00:00 AM,12/31/2016 12:00:00 AM,CV7MW,CV7 Malt Wine,96,4,  Tyler ST,"(42.35115, -71.0604)",42.246772347826095,-71.12517834782608,POINT (-71.12517834782608 42.2467723478261)
"LIMERICK CO., INC. OF DORCHESTER",11/21/2013 12:00:00 AM,12/31/2016 12:00:00 AM,CV7AL,CV7 All Alc.,221,1310,  Dorchester AV,"(42.30591, -71.0586)",42.30577814515882,-71.05873197856076,POINT (-71.05873197856076 42.30577814515882)
"PHO AND I, INC.",11/18/2013 12:00:00 AM,12/31/2016 12:00:00 AM,CV7MW,CV7 Malt Wine,87,267,  Huntington AV,"(42.342206, -71.086199)",42.268507899999996,-71.11841202367941,POINT (-71.11841202367941 42.2685079)
"PHO RESTAURANT, INC.",11/27/2013 12:00:00 AM,12/31/2016 12:00:00 AM,CV7MW,CV7 Malt Wine,120,1370,  Dorchester AV,"(42.304043, -71.05896)",42.30396157142857,-71.05913028571429,POINT (-71.05913028571429 42.30396157142857)
"PHO LE, LLC",01/12/2015 12:00:00 AM,12/31/2016 12:00:00 AM,CV7ALN,CV7ALN - Neighborhood Restricted,99,1356,  Dorchester AV,"(42.3044, -71.058961)",42.30445957142857,-71.05901585714288,POINT (-71.05901585714288 42.30445957142857)
"PASTEUR RESTAURANT II, INC.",11/15/2013 12:00:00 AM,12/31/2016 12:00:00 AM,CV7MW,CV7 Malt Wine,86,682, Washington St,"(42.351393, -71.062629)",42.3514781,-71.0626786,POINT (-71.0626786 42.3514781)
HUY HOANG CORP.,02/04/2015 12:00:00 AM,12/31/2016 12:00:00 AM,CV7MWN,CV7MWN - Neighborhood Restricted,60,223,  Adams ST,"(42.301468, -71.060031)",42.3015918,-71.05994709999997,POINT (-71.05994709999997 42.3015918)
"PRANZINI, INC.",03/31/2016 12:00:00 AM,12/31/2016 12:00:00 AM,CV7AL,CV7 All Alc.,77,226,  Newbury ST,"(42.34971, -71.08124)",42.3497201,-71.081244,POINT (-71.081244 42.3497201)
"B&T, LLC",11/22/2013 12:00:00 AM,12/31/2016 12:00:00 AM,CV7MW,CV7 Malt Wine,60,530,  Tremont ST,"(42.344517, -71.07018)",42.344563808894954,-71.07039392147341,POINT (-71.07039392147341 42.34456380889495)
"TOW PIER 6 RESTAURANT GROUP, LLC.",11/26/2013 12:00:00 AM,12/31/2016 12:00:00 AM,CV7AL,CV7 All Alc.,325,1, Eighth St,"(42.373172, -71.050092)",42.373067799999994,-71.04997840000001,POINT (-71.04997840000001 42.37306779999999)
LISA DIPRIZIO,11/22/2013 12:00:00 AM,12/31/2016 12:00:00 AM,CV7MWL,CV7 Malt Wine Liq.,99,981,  Bennington ST,"(42.386267, -71.007379)",42.385847013430656,-71.00882767505121,POINT (-71.00882767505121 42.38584701343066)
"North End Pomodoro of Boston, Inc.",11/08/2013 12:00:00 AM,12/31/2016 12:00:00 AM,CV7MW,CV7 Malt Wine,22,204,  Hanover ST,"(42.362833, -71.055718)",42.3628225,-71.055628,POINT (-71.055628 42.3628225)
THE BLUES CORPORATION,11/22/2013 12:00:00 AM,12/31/2016 12:00:00 AM,CV7AL,CV7 All Alc.,120,338,  Washington ST,"(42.348901, -71.152529)",42.348988,-71.15239720000001,POINT (-71.15239720000001 42.348988)
"PORTO BELLO, INC.",11/25/2013 12:00:00 AM,12/31/2016 12:00:00 AM,CV7MWL,CV7 Malt Wine Liq.,24,672,E Broadway ,"(42.3358, -71.03763)",42.335766250000006,-71.03764151082044,POINT (-71.03764151082044 42.33576625000001)
"PREZZA, INC.",11/19/2013 12:00:00 AM,12/31/2016 12:00:00 AM,CV7AL,CV7 All Alc.,98,24,  Fleet ST,"(42.36467, -71.05276)",42.36468795,-71.05272703176317,POINT (-71.05272703176317 42.36468795)
"PUEBLO VIEJO PUPUSERIA & MEXICAN GRILL II, INC.",11/12/2013 12:00:00 AM,12/31/2016 12:00:00 AM,CV7MWL,CV7 Malt Wine Liq.,60,309,  Bennington ST,"(42.378888, -71.027796)",42.379015777777774,-71.02763914814814,POINT (-71.02763914814814 42.37901577777777)
"GAGANDEEP, INC.",11/18/2013 12:00:00 AM,12/31/2016 12:00:00 AM,CV7MW,CV7 Malt Wine,38,109,  Brighton AV,"(42.35302, -71.13052)",42.3527104090909,-71.13079295454546,POINT (-71.13079295454546 42.3527104090909)
PUSHCART CAFE,11/22/2013 12:00:00 AM,12/31/2016 12:00:00 AM,CV7MWL,CV7 Malt Wine Liq.,48,115,  Salem ST,"(42.364414, -71.055372)",42.364434,-71.055414,POINT (-71.055414 42.364434)
Qdoba Restaurant Corporation,11/29/2013 12:00:00 AM,12/31/2016 12:00:00 AM,CV7MW,CV7 Malt Wine,92,17,  Forsyth ST,"(42.340107, -71.091002)",42.34076360869565,-71.09100504347828,POINT (-71.09100504347828 42.34076360869565)
"IL PANINO EXPRESS, INC.",11/18/2013 12:00:00 AM,12/31/2016 12:00:00 AM,CV7MWL,CV7 Malt Wine Liq.,48,264,  Hanover ST,"(42.363585, -71.054861)",42.363613,-71.054828,POINT (-71.054828 42.363613)
"RABIA'S, INC.",11/25/2013 12:00:00 AM,12/31/2016 12:00:00 AM,CV7MWL,CV7 Malt Wine Liq.,62,71,  Salem ST,"(42.363371, -71.055799)",42.363419,-71.055848,POINT (-71.055848 42.363419)
RED D. CORPORATION,11/27/2013 12:00:00 AM,12/31/2016 12:00:00 AM,CV7MW,CV7 Malt Wine,19,33,  North SQ,"(42.3635, -71.05386)",42.363648,-71.053733,POINT (-71.05373299999999 42.363648)
"SNP RESTAURANT GROUP, LLC",11/27/2013 12:00:00 AM,12/31/2016 12:00:00 AM,CV7AL,CV7 All Alc.,108,9,  Bowdoin ST,"(42.36102, -71.06319)",42.299457000000004,-71.073041,POINT (-71.073041 42.299457)
"REGAL CINEMAS, INC.",11/25/2013 12:00:00 AM,12/31/2016 12:00:00 AM,CV7MW,CV7 Malt Wine,3013,201,  Brookline AV,"(42.344649, -71.102201)",42.3441935,-71.10225109999999,POINT (-71.10225109999999 42.3441935)
"REGINA PIZZA OF ALLSTON, LLC",11/21/2013 12:00:00 AM,12/31/2016 12:00:00 AM,CV7AL,CV7 All Alc.,330,353,  Cambridge ST,"(42.356111, -71.132629)",42.355672999999996,-71.132687,POINT (-71.132687 42.355673)
RENAISSANCE HOTEL OPERATING COMPANY,11/19/2013 12:00:00 AM,12/31/2016 12:00:00 AM,INNAL,Inn. All Alc.,0,606,  Congress ST,"(42.348192, -71.03913)",42.3479524,-71.0396228,POINT (-71.0396228 42.3479524)
"D & D HOSPITALITY, LLC",11/26/2013 12:00:00 AM,12/31/2016 12:00:00 AM,CV7AL,CV7 All Alc.,150,11,  Dorchester ST,"(42.33721, -71.04375)",42.3373051,-71.04365741284448,POINT (-71.04365741284448 42.3373051)
PYRAMID TUDOR WHARF HOTEL LLC,11/26/2013 12:00:00 AM,12/31/2016 12:00:00 AM,INNAL,Inn. All Alc.,0,44,  Charles River AV,"(42.370607, -71.060502)",42.3706247,-71.06052720390605,POINT (-71.06052720390605 42.3706247)
SANTA'S FOOD CORPORATION,01/09/2015 12:00:00 AM,12/31/2016 12:00:00 AM,CV7ALN,CV7ALN - Neighborhood Restricted,49,18,  Fairmount AV,"(42.255693, -71.1208)",42.255499428571426,-71.12068914285716,POINT (-71.12068914285716 42.25549942857143)
STREGA PIZZERIA & CAFÃ‰ CORP.,11/13/2013 12:00:00 AM,12/31/2016 12:00:00 AM,CV7MWL,CV7 Malt Wine Liq.,10,371,  Hanover ST,"(42.36488, -71.05315)",42.364877,-71.05323849999998,POINT (-71.05323849999998 42.364877)
"RINCON LIMENO RESTAURANT, INC.",11/07/2013 12:00:00 AM,12/31/2016 12:00:00 AM,CV7MWL,CV7 Malt Wine Liq.,49,409,  Chelsea ST,"(42.37986, -71.02689)",42.379909999999995,-71.026974,POINT (-71.026974 42.37991)
"BREW MOON COLORADO, INC.",11/25/2013 12:00:00 AM,12/31/2016 12:00:00 AM,CV7AL,CV7 All Alc.,239,115,  Stuart ST,"(42.351377, -71.065481)",42.351257000000004,-71.0650021,POINT (-71.0650021 42.351257)
"ROGGIE'S 356 MIX, INC.",11/27/2013 12:00:00 AM,12/31/2016 12:00:00 AM,CV7MWL,CV7 Malt Wine Liq.,180,356,  Chestnut Hill AV,"(42.336824, -71.151471)",42.3368679,-71.15147569999999,POINT (-71.15147569999999 42.3368679)
"ROSA MEXICANO BOSTON, LLC",11/22/2013 12:00:00 AM,12/31/2016 12:00:00 AM,CV7AL,CV7 All Alc.,296,155,  Seaport BL,"(42.34968, -71.04281)",42.3502036,-71.0427412,POINT (-71.04274119999999 42.3502036)
"VIRGINICA, LLC",11/27/2013 12:00:00 AM,12/31/2016 12:00:00 AM,CV7MWL,CV7 Malt Wine Liq.,156,381,  Congress ST,"(42.349586, -71.047643)",42.34958405,-71.04763642795639,POINT (-71.04763642795639 42.34958405)
STRONGBOX CORP.,11/25/2013 12:00:00 AM,12/31/2016 12:00:00 AM,CV7MWR,CV7 Malt Wine Restrict.,35,1881,  Centre ST,"(42.286043, -71.155668)",42.2978789,-71.13028249999999,POINT (-71.13028249999999 42.2978789)
BOSTON BALLROOM CORPORATION,11/21/2013 12:00:00 AM,12/31/2016 12:00:00 AM,CV7AL,CV7 All Alc.,1220,279,  Tremont ST,"(42.34995, -71.065539)",42.3546358,-71.17951235595807,POINT (-71.17951235595807 42.3546358)
,12/29/2014 12:00:00 AM,12/31/2016 12:00:00 AM,CV7MWL,CV7 Malt Wine Liq.,48,709,E Broadway ,"(42.33542, -71.037)",42.33551476923077,-71.036986,POINT (-71.036986 42.33551476923077)
"RUTH'S CHRIS STEAK HOUSE BOSTON, LLC",11/27/2013 12:00:00 AM,12/31/2016 12:00:00 AM,CV7AL,CV7 All Alc.,281,45,  School ST,"(42.35811, -71.05933)",42.35811560000001,-71.05932384482708,POINT (-71.05932384482708 42.35811560000001)
SAINT FINBAR CORP.,11/20/2013 12:00:00 AM,12/31/2016 12:00:00 AM,CV7AL,CV7 All Alc.,70,108, Cambridge St,"(42.382197, -71.07937)",42.382172499999996,-71.0793661,POINT (-71.0793661 42.3821725)
"SAKURABANA, INC.",11/15/2013 12:00:00 AM,12/31/2016 12:00:00 AM,CV7MW,CV7 Malt Wine,91,55,  Broad ST,"(42.357986, -71.054346)",42.358059000000004,-71.05411875,POINT (-71.05411875 42.358059)
"LITTLEFIELD MANAGEMENT, INC.",11/27/2013 12:00:00 AM,12/31/2016 12:00:00 AM,CV7ALR,CV7 All Alc. Restrict.,94,118,  Dorchester ST,"(42.335002, -71.046228)",42.3350545,-71.04640025,POINT (-71.04640025 42.3350545)
"TRI'UR, INC.",11/08/2013 12:00:00 AM,12/31/2016 12:00:00 AM,CV7MWL,CV7 Malt Wine Liq.,90,130,  Dartmouth ST,"(42.346779, -71.0761)",42.3469394,-71.0761022,POINT (-71.07610219999999 42.3469394)
"SAL'S ITALIAN TRATTORIA, LLC",11/25/2013 12:00:00 AM,12/31/2016 12:00:00 AM,CV7ALR,CV7 All Alc. Restrict.,150,225, Northern Av,"(42.348075, -71.039263)",42.348660714285714,-71.03876920408162,POINT (-71.03876920408162 42.34866071428571)
"FJS, INC.",11/14/2013 12:00:00 AM,12/31/2016 12:00:00 AM,CV7AL,CV7 All Alc.,156,111,  Chelsea ST,"(42.37264, -71.03526)",42.372668700000006,-71.0353415,POINT (-71.0353415 42.37266870000001)
"TL Sons, LLC",12/01/2014 12:00:00 AM,12/31/2016 12:00:00 AM,CV7MWR,CV7 Malt Wine Restrict.,0,100,  Summer ST,"(42.353633, -71.057366)",42.35384315,-71.05741601421146,POINT (-71.05741601421146 42.35384315)
SAUS BOSTON LLC,11/13/2013 12:00:00 AM,12/31/2016 12:00:00 AM,CV7MWR,CV7 Malt Wine Restrict.,22,33,  Union ST,"(42.36117, -71.05678)",42.361146399999996,-71.05678759999999,POINT (-71.05678759999999 42.3611464)
E. R. ENTERPRISES,11/26/2013 12:00:00 AM,12/31/2016 12:00:00 AM,CV7AL,CV7 All Alc.,185,174,  Lincoln ST,"(42.350585, -71.058431)",42.35798827272728,-71.1402311818182,POINT (-71.14023118181819 42.35798827272728)
"BIG HOUSE FINE DINING, LLC",11/26/2013 12:00:00 AM,12/31/2016 12:00:00 AM,CV7AL,CV7 All Alc.,392,215,  Charles ST,"(42.36203, -71.070362)",42.3620681,-71.07015767249051,POINT (-71.07015767249051 42.3620681)
"BOSTON TAVERN COMPANY, INC.",11/29/2013 12:00:00 AM,12/31/2016 12:00:00 AM,CV7AL,CV7 All Alc.,0,300, Harrison Av,"(42.346109, -71.062993)",42.3454666,-71.0628246,POINT (-71.0628246 42.3454666)
"JD RESTAURANT GROUP, INC.",11/19/2013 12:00:00 AM,12/31/2016 12:00:00 AM,CV7MW,CV7 Malt Wine,87,580,  Commonwealth AV,"(42.348814, -71.099357)",42.3488848,-71.09972309999999,POINT (-71.09972309999999 42.3488848)
SEAPORT HOTEL LIMITED PARTNERSHIP,11/26/2013 12:00:00 AM,12/31/2016 12:00:00 AM,INNAL,Inn. All Alc.,0,1, Seaport Ln,"(42.349316, -71.041743)",42.3491401,-71.04151990280039,POINT (-71.04151990280039 42.3491401)
"DUO WINES, INC.",04/14/2015 12:00:00 AM,12/31/2016 12:00:00 AM,CV7ALN,CV7ALN - Neighborhood Restricted,19,1721,  Washington ST,"(42.337071, -71.076601)",42.2620157,-71.15640570000001,POINT (-71.15640570000001 42.2620157)
"Select Oyster, LLC",11/25/2013 12:00:00 AM,12/31/2016 12:00:00 AM,CV7AL,CV7 All Alc.,60,50,  Gloucester ST,"(42.34862, -71.08407)",42.3486374,-71.08403709999999,POINT (-71.08403709999999 42.3486374)
"KMHW, INC.",11/27/2013 12:00:00 AM,12/31/2016 12:00:00 AM,CV7MWL,CV7 Malt Wine Liq.,84,156,  Cambridge ST,"(42.360978, -71.064668)",42.361004799999996,-71.0646998,POINT (-71.0646998 42.3610048)
"ZEN INTERNATIONAL, INC.",11/26/2013 12:00:00 AM,12/31/2016 12:00:00 AM,CV7MW,CV7 Malt Wine,93,14,  Tyler ST,"(42.350861, -71.060487)",42.24661210000001,-71.12489510253108,POINT (-71.12489510253108 42.24661210000001)
"SHEA & CO., INC.",11/29/2013 12:00:00 AM,12/31/2016 12:00:00 AM,TAVAL,Tavern Licenses,30,222,W Broadway ,"(42.339803, -71.052729)",42.33997304887647,-71.05248413645087,POINT (-71.05248413645087 42.33997304887647)
"NOSMADA, INC.",11/25/2013 12:00:00 AM,12/31/2016 12:00:00 AM,CV7AL,CV7 All Alc.,232,332,W Broadway ,"(42.338415, -71.049876)",42.33837938141514,-71.05001052662435,POINT (-71.05001052662435 42.33837938141514)
"HST LESSEE BOSTON, LLC",11/21/2013 12:00:00 AM,12/31/2016 12:00:00 AM,INNAL,Inn. All Alc.,0,39,  Dalton ST,"(42.34657, -71.08384)",42.3467642,-71.08366269999999,POINT (-71.08366269999999 42.3467642)
"JAE'S CAFÃ‰ & GRILL, INC.",11/19/2013 12:00:00 AM,12/31/2016 12:00:00 AM,CV7AL,CV7 All Alc.,111,520,  Columbus AV,"(42.34189, -71.07978)",42.34189295,-71.07977614694909,POINT (-71.07977614694909 42.34189295)
"SILVERTONE RESTAURANT, INC.",11/26/2013 12:00:00 AM,12/31/2016 12:00:00 AM,CV7AL,CV7 All Alc.,130,69,  Bromfield ST,"(42.357122, -71.060928)",42.3571207,-71.0609359,POINT (-71.0609359 42.3571207)
CLARENDON LIMITED PARTNER,11/21/2013 12:00:00 AM,12/31/2016 12:00:00 AM,CV7AL,CV7 All Alc.,235,199,  Clarendon ST,"(42.349571, -71.074268)",42.349774,-71.074629,POINT (-71.074629 42.349774)
HIGH MIDDLE CORP.,11/26/2013 12:00:00 AM,12/31/2016 12:00:00 AM,CV7AL,CV7 All Alc.,108,230,  Congress ST,"(42.35449, -71.05422)",42.35437912,-71.05420924,POINT (-71.05420924000001 42.35437912)
SMITH & WOLLENSKY ATLANTIC WHARF LLC,11/20/2013 12:00:00 AM,12/31/2016 12:00:00 AM,CV7AL,CV7 All Alc.,408,290,  Congress ST,"(42.353001, -71.052481)",42.3529,-71.05265899999999,POINT (-71.05265899999999 42.3529)
S&W OF BOSTON LLC,11/27/2013 12:00:00 AM,12/31/2016 12:00:00 AM,CV7AL,CV7 All Alc.,434,101,  Arlington ST,"(42.34972, -71.070009)",42.350007,-71.06996,POINT (-71.06995999999999 42.350007)
"74 LTD, INC.",11/27/2013 12:00:00 AM,12/31/2016 12:00:00 AM,CV7MWL,CV7 Malt Wine Liq.,44,108,  Newbury ST,"(42.351223, -71.075671)",42.348785299999996,-71.08552929999999,POINT (-71.08552929999999 42.3487853)
"IWJ RESTAURANT GROUP, INC.",11/22/2013 12:00:00 AM,12/31/2016 12:00:00 AM,CV7AL,CV7 All Alc.,199,99,  High ST,"(42.354245, -71.05484)",42.35416995,-71.054716365,POINT (-71.054716365 42.35416995)
"C & S TAVERN, INC.",11/25/2013 12:00:00 AM,12/31/2016 12:00:00 AM,CV7AL,CV7 All Alc.,40,380,  Warren ST,"(42.317986, -71.081739)",42.317946,-71.081837,POINT (-71.08183699999999 42.317946)
"AMARU'S VILLA, INC.",11/21/2013 12:00:00 AM,12/31/2016 12:00:00 AM,CV7AL,CV7 All Alc.,147,750,  Adams ST,"(42.28397, -71.055271)",42.284131,-71.05538383333334,POINT (-71.05538383333334 42.284131)
NEWBURY FINE DINING LIMITED PARTNERSHIP,11/26/2013 12:00:00 AM,12/31/2016 12:00:00 AM,CV7AL,CV7 All Alc.,232,327,  Newbury ST,"(42.348792, -71.086271)",42.348741,-71.08620859999999,POINT (-71.08620859999999 42.348741)
TONELLI INCORPORATED,11/07/2013 12:00:00 AM,12/31/2016 12:00:00 AM,CV7MW,CV7 Malt Wine,78,388,  Centre ST,"(42.32173, -71.10964)",42.295065,-71.05708100000001,POINT (-71.05708100000001 42.295065)
SORELLINA LLC,11/27/2013 12:00:00 AM,12/31/2016 12:00:00 AM,CV7AL,CV7 All Alc.,160,1, Huntington Av,"(42.348762, -71.077999)",42.3487095,-71.07837740000001,POINT (-71.07837740000001 42.3487095)
SOUL FIRE LLC,11/26/2013 12:00:00 AM,12/31/2016 12:00:00 AM,CV7MW,CV7 Malt Wine,93,178,  Harvard AV,"(42.35116, -71.13119)",42.26028002040816,-71.12284571428572,POINT (-71.12284571428572 42.26028002040816)
"KUPKA, LLC",11/26/2013 12:00:00 AM,12/31/2016 12:00:00 AM,CV7MWR,CV7 Malt Wine Restrict.,34,737,  Huntington AV,"(42.334069, -71.105529)",42.33405056191158,-71.10531866451045,POINT (-71.10531866451045 42.33405056191158)
BUTTERY CORPORATION,11/26/2013 12:00:00 AM,12/31/2016 12:00:00 AM,CV7ALR,CV7 All Alc. Restrict.,108,314,  Shawmut AV,"(42.34209, -71.07029)",42.34208440000001,-71.07035745000002,POINT (-71.07035745000002 42.34208440000001)
"SOUTH DINER, LLP",11/20/2013 12:00:00 AM,12/31/2016 12:00:00 AM,CV7MWR,CV7 Malt Wine Restrict.,39,178,  Kneeland ST,"(42.349893, -71.057819)",42.34986615,-71.05774915,POINT (-71.05774915000001 42.34986615)
"V-LOUNGE, INC.",11/19/2013 12:00:00 AM,12/31/2016 12:00:00 AM,CV7MWL,CV7 Malt Wine Liq.,250,150,  Kneeland ST,"(42.349977, -71.05817)",42.3499328,-71.0582458,POINT (-71.05824579999999 42.3499328)
SPRING STREET CAFÃ‰ CORP,11/20/2013 12:00:00 AM,12/31/2016 12:00:00 AM,CV7MWL,CV7 Malt Wine Liq.,48,320,  Spring ST,"(42.27171, -71.17211)",42.27214163636364,-71.17178477272728,POINT (-71.17178477272728 42.27214163636364)
"South End Partners, Inc.",03/12/2015 12:00:00 AM,12/31/2016 12:00:00 AM,CV7ALR,CV7 All Alc. Restrict.,256,569,  Columbus AV,"(42.34099, -71.08164)",42.3409201,-71.0816412,POINT (-71.08164120000001 42.3409201)
"TRAFFIC RESTAURANT, LLC",11/20/2013 12:00:00 AM,12/31/2016 12:00:00 AM,CV7AL,CV7 All Alc.,198,1525,  Washington ST,"(42.339878, -71.07261)",42.2620157,-71.15640570000001,POINT (-71.15640570000001 42.2620157)
"STEPHANIE'S IN SOUTHIE, LLC",11/27/2013 12:00:00 AM,12/31/2016 12:00:00 AM,CV7AL,CV7 All Alc.,153,11,W Broadway ,"(42.34248, -71.05686)",42.3425067,-71.05682540000001,POINT (-71.05682540000001 42.3425067)
"FOHENAGH, LLC",11/27/2013 12:00:00 AM,12/31/2016 12:00:00 AM,CV7AL,CV7 All Alc.,84,60,  State ST,"(42.35927, -71.05643)",42.35922935,-71.05642886016267,POINT (-71.05642886016267 42.35922935)
"ORIGINAL STOCKYARD, LLC",11/22/2013 12:00:00 AM,12/31/2016 12:00:00 AM,CV7AL,CV7 All Alc.,455,135,  Market ST,"(42.35778, -71.14858)",42.3577196,-71.14846700000001,POINT (-71.14846700000001 42.3577196)
"DONNA TEMPLE, LLC",11/27/2013 12:00:00 AM,12/31/2016 12:00:00 AM,CV7AL,CV7 All Alc.,176,48,  Temple PL,"(42.355214, -71.061622)",42.3551443,-71.0616993,POINT (-71.0616993 42.3551443)
"ASILLEM, LLC",11/29/2013 12:00:00 AM,12/31/2016 12:00:00 AM,CV7MW,CV7 Malt Wine,46,182,  Western AV,"(42.362961, -71.129376)",42.36295689999999,-71.13705209999999,POINT (-71.13705209999999 42.36295689999999)
"NICOMAR, INC.",11/13/2013 12:00:00 AM,12/31/2016 12:00:00 AM,CV7MWL,CV7 Malt Wine Liq.,54,379,  Hanover ST,"(42.364994, -71.053067)",42.3649606,-71.05301394237114,POINT (-71.05301394237114 42.3649606)
"BOSTON CULINARY GROUP, INC.",11/27/2013 12:00:00 AM,12/31/2016 12:00:00 AM,CV7AL,CV7 All Alc.,38000,111,  Waldemar AV,"(42.39443, -71.00029)",42.39266437260132,-71.00395400931806,POINT (-71.00395400931806 42.39266437260132)
"SULLIVAN'S PUB OF CHARLESTOWN, INC.",11/19/2013 12:00:00 AM,12/31/2016 12:00:00 AM,CV7AL,CV7 All Alc.,65,85,  Main ST,"(42.373922, -71.062762)",42.38302028571429,-71.07154328571428,POINT (-71.07154328571428 42.38302028571429)
"SULLIVAN'S RESTAURANT, INC.",11/29/2013 12:00:00 AM,12/31/2016 12:00:00 AM,CV7AL,CV7 All Alc.,88,56,  Union ST,"(42.373526, -71.066473)",42.34526565,-71.14988109999999,POINT (-71.14988109999999 42.34526565)
"SSJHP, INC.",11/18/2013 12:00:00 AM,12/31/2016 12:00:00 AM,CV7MW,CV7 Malt Wine,58,84,  Peterborough ST,"(42.343135, -71.098841)",42.34323338770112,-71.09874788533399,POINT (-71.09874788533399 42.34323338770112)
THOUSAND CHEF FOODS CORP.,11/18/2013 12:00:00 AM,12/31/2016 12:00:00 AM,CV7MW,CV7 Malt Wine,60,45,  Gainsborough ST,"(42.341989, -71.087081)",42.34195,-71.087115,POINT (-71.087115 42.34195)
"TACO MEX, INC.",11/19/2013 12:00:00 AM,12/31/2016 12:00:00 AM,CV7AL,CV7 All Alc.,30,65,  Maverick SQ,"(42.36968, -71.03866)",42.36966092307692,-71.03946234615384,POINT (-71.03946234615384 42.36966092307692)
3W&Z CORP.,11/29/2013 12:00:00 AM,12/31/2016 12:00:00 AM,CV7MW,CV7 Malt Wine,48,34,  Oxford ST,"(42.351466, -71.060209)",42.35217936363637,-71.06044318181819,POINT (-71.06044318181819 42.35217936363637)
"IHMS (BOSTON), LLC",11/29/2013 12:00:00 AM,12/31/2016 12:00:00 AM,INNAL,Inn. All Alc.,0,15,  Arlington ST,"(42.35283, -71.0716)",42.35282695,-71.07158468201446,POINT (-71.07158468201446 42.35282695)
"GOLDEN SUN, INC.",11/26/2013 12:00:00 AM,12/31/2016 12:00:00 AM,CV7MW,CV7 Malt Wine,49,1277,  River ST,"(42.255952, -71.124289)",42.25586776923077,-71.1243803076923,POINT (-71.12438030769231 42.25586776923077)
"FIRST ATLAS LIONS, LLC",11/08/2013 12:00:00 AM,12/31/2016 12:00:00 AM,CV7ALR,CV7 All Alc. Restrict.,200,73,  Main ST,"(42.373887, -71.062647)",42.38304624489796,-71.07154781632653,POINT (-71.07154781632653 42.38304624489796)
"TAPEO, INC.",11/21/2013 12:00:00 AM,12/31/2016 12:00:00 AM,CV7AL,CV7 All Alc.,198,266,  Newbury ST,"(42.349163, -71.083186)",42.349191999999995,-71.083201,POINT (-71.083201 42.349192)
"TAQUERIA EL CARRIZAL, INC.",11/25/2013 12:00:00 AM,12/31/2016 12:00:00 AM,CV7MWL,CV7 Malt Wine Liq.,50,254,  Brighton AV,"(42.353243, -71.136649)",42.3533363487638,-71.1363208172538,POINT (-71.1363208172538 42.3533363487638)
DUARTE CORP.,11/19/2013 12:00:00 AM,12/31/2016 12:00:00 AM,CV7MWL,CV7 Malt Wine Liq.,70,210,  Hanover ST,"(42.362919, -71.05563)",42.362857399999996,-71.0555973,POINT (-71.0555973 42.3628574)
"LES AMIS RESTAURANT, INC.",11/21/2013 12:00:00 AM,12/31/2016 12:00:00 AM,CV7MWL,CV7 Malt Wine Liq.,96,1610,  Commonwealth AV,"(42.343355, -71.142631)",42.34363179462126,-71.14342065403406,POINT (-71.14342065403406 42.34363179462126)
"MOHAMMAD ALAM, INDIVIDUAL",11/27/2013 12:00:00 AM,12/31/2016 12:00:00 AM,CV7MW,CV7 Malt Wine,44,1111, Dorchester Av,"(42.312658, -71.057474)",42.31263635,-71.05748584340166,POINT (-71.05748584340166 42.31263635)
"TERIYAKI HOUSE, INC.",11/19/2013 12:00:00 AM,12/31/2016 12:00:00 AM,CV7MW,CV7 Malt Wine,18,32,W Broadway ,"(42.342726, -71.056371)",42.34252897710017,-71.05643889793461,POINT (-71.05643889793461 42.34252897710017)
"TASTY BURGER 4, LLC",10/25/2015 12:00:00 AM,12/31/2016 12:00:00 AM,CV7MWN,CV7MWN - Neighborhood Restricted,149,2304,  Washington ST,"(42.33006, -71.08405)",42.2620157,-71.15640570000001,POINT (-71.15640570000001 42.2620157)
"Tasty Burger 5, LLC",11/25/2013 12:00:00 AM,12/31/2016 12:00:00 AM,CV7MW,CV7 Malt Wine,92,145, Dartmouth St,"(42.34738, -71.07484)",42.347576600000004,-71.0744137,POINT (-71.07441369999999 42.3475766)
TASTY BURGER CORPORATION,11/22/2013 12:00:00 AM,12/31/2016 12:00:00 AM,CV7MW,CV7 Malt Wine,77,1301,  Boylston ST,"(42.344773, -71.098278)",42.344772999999996,-71.0983594,POINT (-71.09835940000001 42.344773)
"TAVERN ROAD, INC.",11/25/2013 12:00:00 AM,12/31/2016 12:00:00 AM,CV7AL,CV7 All Alc.,180,343,  Congress ST,"(42.35059, -71.04938)",42.3505865,-71.04938139175502,POINT (-71.04938139175502 42.3505865)
"TEATRO, INC.",11/21/2013 12:00:00 AM,12/31/2016 12:00:00 AM,CV7AL,CV7 All Alc.,126,177,  Tremont ST,"(42.353, -71.06405)",42.3529973,-71.0642375,POINT (-71.0642375 42.3529973)
"Z-LOVE, LLC",11/26/2013 12:00:00 AM,12/31/2016 12:00:00 AM,CV7AL,CV7 All Alc.,53,289, Dorchester St,"(42.332022, -71.052758)",42.33189633333333,-71.05271966666669,POINT (-71.05271966666669 42.33189633333333)
"BLIFIA ASSOCIATES, LLC",11/27/2013 12:00:00 AM,12/31/2016 12:00:00 AM,CV7MW,CV7 Malt Wine,36,1746,  Washington ST,"(42.33646, -71.07653)",42.2620157,-71.15640570000001,POINT (-71.15640570000001 42.2620157)
"TERRAMIA, INC.",11/25/2013 12:00:00 AM,12/31/2016 12:00:00 AM,CV7MWL,CV7 Malt Wine Liq.,39,98, Salem St,"(42.36406, -71.05574)",42.377528000000005,-71.066435,POINT (-71.066435 42.37752800000001)
"Y&Y ENTERPRISES, INC.",11/19/2013 12:00:00 AM,12/31/2016 12:00:00 AM,CV7MW,CV7 Malt Wine,62,132,  Newbury ST,"(42.35092, -71.07668)",42.3509847,-71.076712,POINT (-71.076712 42.3509847)
THAITATION LLC,11/25/2013 12:00:00 AM,12/31/2016 12:00:00 AM,CV7MW,CV7 Malt Wine,44,129,  Jersey ST,"(42.342326, -71.096951)",42.34268233333333,-71.0970445,POINT (-71.0970445 42.34268233333333)
"NINE THIRTY FOUR, INC.",11/21/2013 12:00:00 AM,12/31/2016 12:00:00 AM,CV7AL,CV7 All Alc.,150,934,  Dorchester AV,"(42.31897, -71.05648)",42.318891799999996,-71.05661740000001,POINT (-71.05661740000001 42.3188918)
"POSEIDON ENTERPRISES, INC.",11/15/2013 12:00:00 AM,12/31/2016 12:00:00 AM,CV7ALR,CV7 All Alc. Restrict.,228,88,  Sleeper ST,"(42.353895, -71.048576)",42.353709,-71.048734,POINT (-71.048734 42.353709)
"GSTH INVESTMENT GROUP, LLC",11/21/2013 12:00:00 AM,12/31/2016 12:00:00 AM,CV7AL,CV7 All Alc.,668,51,  Stuart ST,"(42.351234, -71.064128)",42.348285499999996,-71.0765335,POINT (-71.0765335 42.3482855)
Baird Hospitality LLC,11/29/2013 12:00:00 AM,12/31/2016 12:00:00 AM,CV7AL,CV7 All Alc.,109,15,  Union ST,"(42.360853, -71.056685)",42.345076714008506,-71.14796546161499,POINT (-71.14796546161499 42.34507671400851)
"B. STONE, INC.",11/20/2013 12:00:00 AM,12/31/2016 12:00:00 AM,CV7AL,CV7 All Alc.,240,1505, Dorchester Av,"(42.299303, -71.060619)",42.29917802274701,-71.06058852456808,POINT (-71.06058852456808 42.29917802274701)
"M. COOKE, INC.",11/25/2013 12:00:00 AM,12/31/2016 12:00:00 AM,CV7AL,CV7 All Alc.,200,80, Atlantic Av,"(42.362516, -71.050719)",42.3624578,-71.05049090000001,POINT (-71.05049090000001 42.3624578)
BOSTONIAN HOTEL LIMITED PARTNERSHIP,11/18/2013 12:00:00 AM,12/31/2016 12:00:00 AM,INNAL,Inn. All Alc.,0,20,  North ST,"(42.360699, -71.056342)",42.360521262053645,-71.05651151164189,POINT (-71.05651151164189 42.36052126205364)
"HERSHA HOSPITALITY MANAGEMENT, L.P.",11/25/2013 12:00:00 AM,12/31/2016 12:00:00 AM,INNAL,Inn. All Alc.,0,119,  Merrimac ST,"(42.363933, -71.062461)",42.36379378723405,-71.06233259574469,POINT (-71.06233259574469 42.36379378723405)
552 TREMONT LLC,11/22/2013 12:00:00 AM,12/31/2016 12:00:00 AM,CV7MWL,CV7 Malt Wine Liq.,30,552,  Tremont ST,"(42.34376, -71.07146)",42.343861,-71.071614,POINT (-71.071614 42.343861)
"THE CATERED AFFAIR, INC.",11/26/2013 12:00:00 AM,12/31/2016 12:00:00 AM,CV7AL,CV7 All Alc.,2727,700,  Boylston ST,"(42.349231, -71.078658)",42.34932979999999,-71.07865473816359,POINT (-71.07865473816359 42.34932979999999)
"FACILITY CONCESSION SERVICES, INC.",11/25/2013 12:00:00 AM,12/31/2016 12:00:00 AM,GOPAL,GOP All Alc.,1658,98,  Boylston ST,"(42.352044, -71.065328)",42.317103,-71.105056,POINT (-71.105056 42.317103)
"BADOINKAS, LLC",11/20/2013 12:00:00 AM,12/31/2016 12:00:00 AM,CV7AL,CV7 All Alc.,211,83,  Harvard AV,"(42.353503, -71.132378)",42.25937265,-71.12219260675178,POINT (-71.12219260675178 42.25937265)
"RED ROCKETS, LLC",11/26/2013 12:00:00 AM,12/31/2016 12:00:00 AM,CV7AL,CV7 All Alc.,62,100,  Chandler ST,"(42.34626, -71.07288)",42.3463152,-71.0729011,POINT (-71.0729011 42.3463152)
"THE DUGOUT CAFE, INC.",11/21/2013 12:00:00 AM,12/31/2016 12:00:00 AM,CV7AL,CV7 All Alc.,96,722,  Commonwealth AV,"(42.34957, -71.10598)",42.3496292,-71.1059547,POINT (-71.1059547 42.3496292)
"EWalk SE1, LLC",11/20/2013 12:00:00 AM,12/31/2016 12:00:00 AM,CV7AL,CV7 All Alc.,80,1415,  Washington ST,"(42.341226, -71.07053)",42.2620157,-71.15640570000001,POINT (-71.15640570000001 42.2620157)
"BOYLSTON ENTERTAINMENT, INC.",11/26/2013 12:00:00 AM,12/31/2016 12:00:00 AM,CV7AL,CV7 All Alc.,672,1, Boylston Pl,"(42.352142, -71.06615)",42.316183,-71.102754,POINT (-71.102754 42.316183)
"The Frogmore, LLC",02/05/2016 12:00:00 AM,12/31/2016 12:00:00 AM,CV7ALN,CV7ALN - Neighborhood Restricted,95,365,  Centre ST,"(42.322657, -71.108212)",42.294618285714286,-71.05807528571428,POINT (-71.05807528571428 42.29461828571429)
"HENRY'S DELICATESSEN, LLC",11/27/2013 12:00:00 AM,12/31/2016 12:00:00 AM,CV7AL,CV7 All Alc.,90,1395,  Washington ST,"(42.34136, -71.07015)",42.2620157,-71.15640570000001,POINT (-71.15640570000001 42.2620157)
"THE ISABELLA STEWART GARDNER MUSEUM, INCORPORATED",11/21/2013 12:00:00 AM,12/31/2016 12:00:00 AM,CV7MW,CV7 Malt Wine,1293,280,  Fenway  ,"(42.338764, -71.098844)",42.33885643352518,-71.09870037237938,POINT (-71.09870037237938 42.33885643352518)
"SYMPHONY EXCHANGE, INC.",11/29/2013 12:00:00 AM,12/31/2016 12:00:00 AM,CV7MWL,CV7 Malt Wine Liq.,90,250,  Huntington AV,"(42.342201, -71.08503)",42.3412570020076,-71.08714887590449,POINT (-71.08714887590449 42.3412570020076)
"1625 EXCHANGE, INC.",11/29/2013 12:00:00 AM,12/31/2016 12:00:00 AM,CV7MWL,CV7 Malt Wine Liq.,42,1625,  Tremont ST,"(42.33392, -71.10354)",42.333808875,-71.103476125,POINT (-71.103476125 42.333808875)
Boston Pubs LLC,11/29/2013 12:00:00 AM,12/31/2016 12:00:00 AM,CV7AL,CV7 All Alc.,231,148,  State ST,"(42.359387, -71.054174)",42.3593344,-71.054186,POINT (-71.054186 42.3593344)
"DAVID N. MURRAY, INDIVIDUAL",11/29/2013 12:00:00 AM,12/31/2014 12:00:00 AM,CV7AL,CV7 All Alc.,295,69,  Canal ST,"(42.36407, -71.05936)",42.3640688,-71.0594262,POINT (-71.0594262 42.3640688)
"GREEN BRIAR TAVERN, INC.",12/01/2013 12:00:00 AM,12/31/2016 12:00:00 AM,CV7AL,CV7 All Alc.,360,280,  Washington ST,"(42.348095, -71.150232)",42.301073734271625,-71.07613980801273,POINT (-71.07613980801273 42.30107373427163)
"GALWAY, INC.",11/26/2013 12:00:00 AM,12/31/2016 12:00:00 AM,CV7AL,CV7 All Alc.,693,85,  Causeway ST,"(42.364591, -71.062338)",42.364582,-71.0624441,POINT (-71.06244409999999 42.364582)
"SPORTER'S CAFE, INC.",11/26/2013 12:00:00 AM,12/31/2016 12:00:00 AM,CV7AL,CV7 All Alc.,150,228,  Cambridge ST,"(42.360985, -71.06661)",42.3610059,-71.06667579999998,POINT (-71.06667579999998 42.3610059)
"BOSTON SPEAKEASY, INC.",11/22/2013 12:00:00 AM,12/31/2016 12:00:00 AM,CV7AL,CV7 All Alc.,180,1277,  Commonwealth AV,"(42.34982, -71.13342)",42.3504455,-71.10930570000001,POINT (-71.10930570000001 42.3504455)
"MRJ, INC.",11/19/2013 12:00:00 AM,12/31/2016 12:00:00 AM,CV7AL,CV7 All Alc.,150,18,  Province ST,"(42.357254, -71.05958)",42.357238820999825,-71.05962131205999,POINT (-71.05962131205999 42.35723882099983)
"HE PUB, INC.",11/26/2013 12:00:00 AM,12/31/2016 12:00:00 AM,CV7AL,CV7 All Alc.,88,144,  South ST,"(42.305066, -71.114449)",42.3050894,-71.1145161,POINT (-71.1145161 42.3050894)
PACIFIC BOSTON SERVICE CORPORATION,11/26/2013 12:00:00 AM,12/31/2016 12:00:00 AM,INNAL,Inn. All Alc.,0,250,  Franklin ST,"(42.35663, -71.054279)",42.356458378308865,-71.05431636437623,POINT (-71.05431636437623 42.35645837830887)
"ATLANTIC 101, INC.",11/25/2013 12:00:00 AM,12/31/2016 12:00:00 AM,CV7AL,CV7 All Alc.,240,101,  Atlantic AV,"(42.361781, -71.052341)",42.36200861381552,-71.05110155720904,POINT (-71.05110155720904 42.36200861381552)
"TRIPLE PS, LLC",11/21/2013 12:00:00 AM,12/31/2016 12:00:00 AM,CV7MWL,CV7 Malt Wine Liq.,139,28,W Broadway ,"(42.342726, -71.056519)",42.34257706206541,-71.05651341079849,POINT (-71.05651341079849 42.34257706206541)
"MABROTHERS, LLC",11/27/2013 12:00:00 AM,12/31/2016 12:00:00 AM,CV7AL,CV7 All Alc.,182,10,  Bosworth ST,"(42.356873, -71.06026)",42.3569,-71.06016600000001,POINT (-71.06016600000001 42.3569)
YOEVE CORP.,11/27/2013 12:00:00 AM,12/31/2016 12:00:00 AM,CV7AL,CV7 All Alc.,65,1152,  River ST,"(42.25647, -71.12031)",42.256512386107715,-71.1203520759282,POINT (-71.1203520759282 42.25651238610772)
"RAGLIN ROAD, INC.",11/21/2013 12:00:00 AM,12/31/2016 12:00:00 AM,CV7AL,CV7 All Alc.,253,60,  Franklin ST,"(42.35577, -71.05838)",42.357624,-71.13320818830474,POINT (-71.13320818830474 42.357624)
"BROUGHTON ENTERPRISES, INC.",11/25/2013 12:00:00 AM,12/31/2016 12:00:00 AM,CV7AL,CV7 All Alc.,99,3492,  Washington ST,"(42.30628, -71.10743)",42.306339,-71.107474,POINT (-71.107474 42.306339)
"THE OCEANAIRE RESTAURANT COMPANY, INC.",11/21/2013 12:00:00 AM,12/31/2016 12:00:00 AM,CV7AL,CV7 All Alc.,310,40, Court St,"(42.35903, -71.05927)",42.359094891146476,-71.05913310580077,POINT (-71.05913310580077 42.35909489114648)
"BOSTON CULINARY GROUP, INC.",10/01/2013 12:00:00 AM,12/31/2016 12:00:00 AM,GOPMW,GOP Malt Wine,2763,1, Hamilton Pl,"(42.356225, -71.060994)",42.3562581,-71.06079779718502,POINT (-71.06079779718502 42.3562581)
THE PAINT BAR LLC,11/26/2013 12:00:00 AM,12/31/2016 12:00:00 AM,CV7MW,CV7 Malt Wine,37,248,  Newbury ST,"(42.34936, -71.08253)",42.3493136,-71.082583,POINT (-71.082583 42.3493136)
"667 EAST BROADWAY, INC.",11/26/2013 12:00:00 AM,12/31/2016 12:00:00 AM,CV7MW,CV7 Malt Wine,48,667,E Broadway ,"(42.33542, -71.03786)",42.335490368421056,-71.03846223684211,POINT (-71.03846223684211 42.33549036842106)
"CHUCK'S CAFÃ‰, INC.",11/22/2013 12:00:00 AM,12/31/2016 12:00:00 AM,CV7MWL,CV7 Malt Wine Liq.,48,44,  Charles ST,"(42.35724, -71.070269)",42.357313899999994,-71.0702328,POINT (-71.0702328 42.35731389999999)
OMNI BOSTON CORPORATION,11/25/2013 12:00:00 AM,12/31/2016 12:00:00 AM,INNAL,Inn. All Alc.,0,60,  Tremont ST,"(42.357493, -71.060101)",42.37600352000001,-71.05742464,POINT (-71.05742463999999 42.37600352000001)
"Pink Samurai, LLC",11/27/2013 12:00:00 AM,12/31/2016 12:00:00 AM,CV7MWL,CV7 Malt Wine Liq.,16,658,  Centre ST,"(42.312748, -71.113869)",42.2978789,-71.13028249999999,POINT (-71.13028249999999 42.2978789)
JABC CORP.,11/29/2013 12:00:00 AM,12/31/2016 12:00:00 AM,CV7AL,CV7 All Alc.,180,658,E Broadway ,"(42.33579, -71.03809)",42.3357736,-71.03802074748201,POINT (-71.03802074748201 42.3357736)
TPN CORP.,02/05/2016 12:00:00 AM,12/31/2016 12:00:00 AM,CV7ALN,CV7ALN - Neighborhood Restricted,0,328,  Washington ST,"(42.34887, -71.152162)",42.348958266666656,-71.15188746666666,POINT (-71.15188746666666 42.34895826666666)
"SEAPOINT, INC.",11/29/2013 12:00:00 AM,12/31/2016 12:00:00 AM,CV7AL,CV7 All Alc.,400,367,E Eighth ST,"(42.33113, -71.04634)",42.33109525,-71.04633532624584,POINT (-71.04633532624584 42.33109525)
"SEVENS ALE HOUSE, INC.",11/26/2013 12:00:00 AM,12/31/2016 12:00:00 AM,CV7MW,CV7 Malt Wine,86,77,  Charles ST,"(42.35833, -71.07039)",42.3583275,-71.0703958,POINT (-71.0703958 42.3583275)
ALLSTON VENTURE FIVE INC.,11/25/2013 12:00:00 AM,12/31/2016 12:00:00 AM,CV7AL,CV7 All Alc.,151,1249,  Commonwealth AV,"(42.35021, -71.13215)",42.35016470000001,-71.1321201,POINT (-71.13212009999999 42.35016470000001)
"TWO POUNDS, INC.",11/29/2013 12:00:00 AM,12/31/2016 12:00:00 AM,CV7AL,CV7 All Alc.,90,31,  India ST,"(42.35823, -71.05315)",42.358336540540535,-71.05314513513514,POINT (-71.05314513513514 42.35833654054053)
"UC SOUTH END, LLC",11/21/2013 12:00:00 AM,12/31/2016 12:00:00 AM,CV7MW,CV7 Malt Wine,41,683,  Tremont ST,"(42.34156, -71.07662)",42.34157728571429,-71.0763272857143,POINT (-71.0763272857143 42.34157728571429)
"PURSUIT, INC.",11/20/2013 12:00:00 AM,12/31/2016 12:00:00 AM,CV7MW,CV7 Malt Wine,35,200,  Faneuil Hall Marketplace  ,"(42.360199, -71.054798)",42.36005485,-71.05460485041264,POINT (-71.05460485041264 42.36005485)
THE WILDROVERS INCORPORATED,11/21/2013 12:00:00 AM,12/31/2016 12:00:00 AM,CV7AL,CV7 All Alc.,464,63,  Chatham ST,"(42.359592, -71.053951)",42.359627,-71.0544442,POINT (-71.05444420000001 42.359627)
"THORNTON COMPANIES, INC.",11/26/2013 12:00:00 AM,12/31/2016 12:00:00 AM,CV7AL,CV7 All Alc.,94,100,  Peterborough ST,"(42.342993, -71.099359)",42.343073,-71.09936,POINT (-71.09936 42.343073)
"222 BERKELEY RESTAURANT, LLC",11/22/2013 12:00:00 AM,12/31/2016 12:00:00 AM,CV7AL,CV7 All Alc.,253,222,  Berkeley ST,"(42.35084, -71.07311)",42.3506879,-71.07325920000001,POINT (-71.07325920000001 42.3506879)
,10/10/2014 12:00:00 AM,12/31/2016 12:00:00 AM,CV7MW,CV7 Malt Wine,26,3706,  Washington ST,"(42.30036, -71.11297)",42.3003852,-71.11302590000001,POINT (-71.11302590000001 42.3003852)
"TKBMA, LLC",11/22/2013 12:00:00 AM,12/31/2016 12:00:00 AM,CV7AL,CV7 All Alc.,442,96,  Brookline AV,"(42.34612, -71.09929)",42.3461618,-71.0993239,POINT (-71.0993239 42.3461618)
"TIP TAP ROOM, INC.",11/26/2013 12:00:00 AM,12/31/2016 12:00:00 AM,CV7AL,CV7 All Alc.,165,138,  Cambridge ST,"(42.361003, -71.063928)",42.36102460000001,-71.0639676,POINT (-71.0639676 42.36102460000001)
"VEE & VEE PRODUCTIONS, LLC",11/27/2013 12:00:00 AM,12/31/2016 12:00:00 AM,CV7MW,CV7 Malt Wine,37,763,  Centre ST,"(42.310283, -71.11526)",42.310246,-71.115202,POINT (-71.115202 42.310246)
SHANGHAI RESTAURANT & BAR CORPORATION,11/26/2013 12:00:00 AM,12/31/2016 12:00:00 AM,CV7AL,CV7 All Alc.,83,232, Tremont St,"(42.351219, -71.064646)",42.35123,-71.0646747,POINT (-71.0646747 42.35123)
"TOM ENGLISH'S COTTAGE, INC.",11/27/2013 12:00:00 AM,12/31/2016 12:00:00 AM,CV7AL,CV7 All Alc.,189,112,  Emerson ST,"(42.336005, -71.040421)",42.335856829689725,-71.04047155440459,POINT (-71.04047155440459 42.33585682968972)
SELECT RESTAURANTS' INC.,11/20/2013 12:00:00 AM,12/31/2016 12:00:00 AM,CV7AL,CV7 All Alc.,837,800,  Boylston ST,"(42.347296, -71.081457)",42.3471718,-71.08250628733232,POINT (-71.08250628733232 42.3471718)
"TOUCHTONE ENTERPRISES, LLC",11/20/2013 12:00:00 AM,12/31/2016 12:00:00 AM,CV7AL,CV7 All Alc.,99,501,E Eighth ST,"(42.331251, -71.041281)",42.331286999999996,-71.04126,POINT (-71.04125999999999 42.331287)
Covered Bridge Group LLC,11/18/2014 12:00:00 AM,12/31/2016 12:00:00 AM,CV7ALN,CV7ALN - Neighborhood Restricted,140,120,  Kingston ST,"(42.35228, -71.0591)",42.3522131,-71.0590854,POINT (-71.0590854 42.3522131)
A & C NEWBURY STREET,11/21/2013 12:00:00 AM,12/31/2016 12:00:00 AM,CV7MWL,CV7 Malt Wine Liq.,19,264,  Newbury ST,"(42.3492, -71.08312)",42.3492309,-71.0831297,POINT (-71.0831297 42.3492309)
"Tres Gatos, LLC",03/17/2015 12:00:00 AM,12/31/2016 12:00:00 AM,CV7ALN,CV7ALN - Neighborhood Restricted,49,470,  Centre ST,"(42.31909, -71.11164)",42.3191039,-71.11170209999999,POINT (-71.11170209999999 42.3191039)
TRESCA RESTAURANT GROUP LLC,11/27/2013 12:00:00 AM,12/31/2016 12:00:00 AM,CV7ALR,CV7 All Alc. Restrict.,120,227,  Hanover ST,"(42.362994, -71.055043)",42.362989,-71.055164,POINT (-71.055164 42.362989)
"TRIDENT BOOKSELLERS, INC.",11/07/2013 12:00:00 AM,12/31/2016 12:00:00 AM,CV7MW,CV7 Malt Wine,224,338,  Newbury ST,"(42.34823, -71.0866)",42.3482979,-71.08663659999999,POINT (-71.08663659999999 42.3482979)
"DDC, LLC",11/29/2013 12:00:00 AM,12/31/2016 12:00:00 AM,CV7AL,CV7 All Alc.,116,140,  Boylston ST,"(42.35228, -71.06622)",42.3523219,-71.06620090000001,POINT (-71.06620090000001 42.3523219)
"ST. ENTERTAINMENT GROUP, INC.",11/25/2013 12:00:00 AM,12/31/2016 12:00:00 AM,GOPAL,GOP All Alc.,200,100, Stuart St,"(42.350916, -71.065256)",42.35082685,-71.06556905055248,POINT (-71.06556905055248 42.35082685)
GREEN DOOR COFFEE HOUSE COMPANY,04/09/2015 12:00:00 AM,12/31/2016 12:00:00 AM,CV7MW,CV7 Malt Wine,77,284, Amory St,"(42.314637, -71.104489)",42.3143773,-71.1040468,POINT (-71.10404680000001 42.3143773)
"WESTERN HOST, INC.",11/22/2013 12:00:00 AM,12/31/2016 12:00:00 AM,INNALR,Inn. All Alc. Restrict.,0,100, Stuart St,"(42.350916, -71.065256)",42.35082685,-71.06556905055248,POINT (-71.06556905055248 42.35082685)
"MURASAKI, INC.",11/18/2013 12:00:00 AM,12/31/2016 12:00:00 AM,CV7MWL,CV7 Malt Wine Liq.,32,224,  Newbury ST,"(42.34973, -71.08116)",42.3497013,-71.0811355,POINT (-71.0811355 42.3497013)
"L.B.E., INC.",11/18/2013 12:00:00 AM,12/31/2015 12:00:00 AM,CV7AL,CV7 All Alc.,653,295,  Franklin ST,"(42.35705, -71.05283)",42.35703955,-71.05275257128847,POINT (-71.05275257128847 42.35703955)
"UNITY SPORTS & CULTURAL CLUB, INC.",11/25/2013 12:00:00 AM,12/31/2015 12:00:00 AM,CV7AL,CV7 All Alc.,605,10,  Dunbar AV,"(42.28625, -71.07182)",42.286263,-71.07182014995348,POINT (-71.07182014995348 42.286263)
"UNO RESTAURANTS, LLC",11/21/2013 12:00:00 AM,12/31/2016 12:00:00 AM,CV7AL,CV7 All Alc.,145,270,  Huntington AV,"(42.34151, -71.086)",42.341193373998756,-71.08729495960074,POINT (-71.08729495960074 42.34119337399876)
"UNO RESTAURANTS, LLC",11/21/2013 12:00:00 AM,12/31/2016 12:00:00 AM,CV7AL,CV7 All Alc.,240,1,  Brookline AV,"(42.34842, -71.097471)",42.338786,-71.10765,POINT (-71.10765000000001 42.338786)
MERENGUE CORP.,11/27/2013 12:00:00 AM,12/31/2016 12:00:00 AM,CV7MWL,CV7 Malt Wine Liq.,50,57,W Dedham St,"(42.341861, -71.07242)",42.341901422680614,-71.07264276875141,POINT (-71.07264276875141 42.34190142268061)
PHYLLIS CORPORATION,11/18/2013 12:00:00 AM,12/31/2016 12:00:00 AM,CV7AL,CV7 All Alc.,647,20,  Ericsson ST,"(42.29175, -71.04032)",42.2916908,-71.04069799999999,POINT (-71.04069799999999 42.2916908)
"VICTORIA SEAFOOD RESTAURANT, INC.",11/19/2013 12:00:00 AM,12/31/2016 12:00:00 AM,CV7MW,CV7 Malt Wine,99,1029,  Commonwealth AV,"(42.352234, -71.12166)",42.351625066072586,-71.1215814669051,POINT (-71.1215814669051 42.35162506607259)
CENT' ANNI CORPORATION,11/29/2013 12:00:00 AM,12/31/2016 12:00:00 AM,CV7MWL,CV7 Malt Wine Liq.,198,1024,  Massachusetts AV,"(42.32707, -71.06681)",42.32703485,-71.06678790696566,POINT (-71.06678790696566 42.32703485)
"BIG BAD DOG, LLC",11/22/2013 12:00:00 AM,12/31/2016 12:00:00 AM,CV7MWL,CV7 Malt Wine Liq.,68,54,  Salem ST,"(42.363196, -71.056279)",42.37746933333333,-71.066549125,POINT (-71.06654912499999 42.37746933333333)
"VIVA BURRITO BOSTON, INC.",03/10/2014 12:00:00 AM,12/31/2016 12:00:00 AM,CV7MW,CV7 Malt Wine,38,66,  Staniford ST,"(42.362733, -71.06423)",42.3629292,-71.0640963,POINT (-71.0640963 42.3629292)
"W & P HONG KONG AT FANEUIL HALL, INC.",11/19/2013 12:00:00 AM,12/31/2016 12:00:00 AM,CV7AL,CV7 All Alc.,210,64,  Chatham ST,"(42.35959, -71.05386)",42.35961408,-71.05412731999998,POINT (-71.05412731999998 42.35961408)
Wabora Newton LLC,11/25/2013 12:00:00 AM,12/31/2016 12:00:00 AM,CV7MW,CV7 Malt Wine,43,254,  Newbury ST,"(42.34931, -71.08274)",42.3493363,-71.08274870000001,POINT (-71.08274870000001 42.3493363)
"WAGAMAMA BOSTON ONE, LLC",11/14/2013 12:00:00 AM,12/31/2016 12:00:00 AM,CV7MWL,CV7 Malt Wine Liq.,162,800,  Boylston ST,"(42.34716, -71.08251)",42.3471718,-71.08250628733232,POINT (-71.08250628733232 42.3471718)
"ANFRATTA, LLC",11/27/2013 12:00:00 AM,12/31/2016 12:00:00 AM,CV7AL,CV7 All Alc.,110,90,N Washington ST,"(42.365401, -71.058669)",42.3654552,-71.05860886238284,POINT (-71.05860886238284 42.3654552)
"ENDEVER HOSPITALITY GROUP, LLC",11/19/2013 12:00:00 AM,12/31/2016 12:00:00 AM,CV7AL,CV7 All Alc.,200,40,  Broad ST,"(42.358385, -71.053948)",42.35845764285714,-71.05436992857143,POINT (-71.05436992857143 42.35845764285714)
TYCOR CORPORATION,11/22/2013 12:00:00 AM,12/31/2016 12:00:00 AM,CV7AL,CV7 All Alc.,131,2,  Pleasant ST,"(42.37419, -71.06311)",42.31853630000001,-71.05855890426508,POINT (-71.05855890426508 42.31853630000001)
JOHNNIE'S ON THE SIDE LLC,11/12/2013 12:00:00 AM,12/31/2016 12:00:00 AM,CV7AL,CV7 All Alc.,446,138,  Portland ST,"(42.363627, -71.06129)",42.363652200000004,-71.0611235,POINT (-71.06112349999999 42.3636522)
"DIAMONDROCK BOSTON TENANT, LLC",11/26/2013 12:00:00 AM,12/31/2016 12:00:00 AM,INNAL,Inn. All Alc.,0,425,  Summer ST,"(42.346219, -71.043099)",42.3461583,-71.04330470000001,POINT (-71.04330470000001 42.3461583)
"WESTERN HOST, INC.",11/26/2013 12:00:00 AM,12/31/2016 12:00:00 AM,INNAL,Inn. All Alc.,0,10,  Huntington AV,"(42.348545, -71.077314)",42.3351382,-71.10366982751569,POINT (-71.10366982751569 42.3351382)
"CRT FOOD & BEVERAGE, INC.",11/27/2013 12:00:00 AM,12/31/2016 12:00:00 AM,CV7AL,CV7 All Alc.,345,885,  Boylston ST,"(42.348617, -71.083619)",42.3485273,-71.0834675,POINT (-71.0834675 42.3485273)
"CREATIVE RESTAURANT CONCEPTS, INC.",11/29/2013 12:00:00 AM,12/31/2016 12:00:00 AM,CV7AL,CV7 All Alc.,720,116,  Boylston ST,"(42.352228, -71.065638)",42.31690477988369,-71.10347671213286,POINT (-71.10347671213286 42.31690477988369)
"BEDFORD DINING, INC.",11/22/2013 12:00:00 AM,12/31/2016 12:00:00 AM,CV7AL,CV7 All Alc.,400,116,  Brighton AV,"(42.3526, -71.1306)",42.3526314,-71.1307542,POINT (-71.1307542 42.3526314)
"RESTAURANT ASSOCIATES, LLC AND WOLFGANG PUCK CATERING AND EVENTS, LLC",11/27/2013 12:00:00 AM,12/31/2016 12:00:00 AM,GOPALR,Gen Prem All Alcohol Rest,1876,100,  Northern AV,"(42.352856, -71.043074)",42.3522994,-71.0437107,POINT (-71.04371070000001 42.3522994)
PAINTED HOUSE LLC,11/27/2013 12:00:00 AM,12/31/2016 12:00:00 AM,CV7AL,CV7 All Alc.,267,178,  Harvard AV,"(42.35116, -71.13119)",42.26028002040816,-71.12284571428572,POINT (-71.12284571428572 42.26028002040816)
"WONDER SPICE CAFÃ‰, INC.",11/15/2013 12:00:00 AM,12/31/2016 12:00:00 AM,CV7MW,CV7 Malt Wine,62,695,  Centre ST,"(42.31179, -71.11453)",42.2978789,-71.13028249999999,POINT (-71.13028249999999 42.2978789)
"PIER FIVE SERVICES, INC.",11/26/2013 12:00:00 AM,12/31/2016 12:00:00 AM,CV7AL,CV7 All Alc.,13163,200,  Seaport BL,"(42.35001, -71.04099)",42.3502036,-71.0427412,POINT (-71.04274119999999 42.3502036)
"BHR OPERATIONS, L.L.C.",11/12/2013 12:00:00 AM,12/31/2016 12:00:00 AM,INNAL,Inn. All Alc.,0,5,  Blossom ST,"(42.36185, -71.06661)",42.36167975,-71.06660362445386,POINT (-71.06660362445386 42.36167975)
15 BEACON STREET LLC,11/19/2013 12:00:00 AM,12/31/2016 12:00:00 AM,INNAL,Inn. All Alc.,0,15,  Beacon ST,"(42.35841, -71.06197)",42.3583866,-71.0619489,POINT (-71.0619489 42.3583866)
"ZAI, LLC",11/27/2013 12:00:00 AM,12/31/2016 12:00:00 AM,CV7MWL,CV7 Malt Wine Liq.,34,315,  Shawmut AV,"(42.34234, -71.070529)",42.34237616666667,-71.07035325000003,POINT (-71.07035325000003 42.34237616666667)
"YAMATO II, INC.",11/14/2013 12:00:00 AM,12/31/2016 12:00:00 AM,CV7MWL,CV7 Malt Wine Liq.,202,545, Boylston St,"(42.35081, -71.07581)",42.3507152,-71.0758934,POINT (-71.0758934 42.3507152)
"YAMATO, INC.",11/07/2013 12:00:00 AM,12/31/2016 12:00:00 AM,CV7MW,CV7 Malt Wine,99,111,  Chiswick RD,"(42.340679, -71.151644)",42.34066487585668,-71.15183870180334,POINT (-71.15183870180334 42.34066487585668)
"ROCK LOBSTER CO., INC.",11/22/2013 12:00:00 AM,12/31/2016 12:00:00 AM,CV7MW,CV7 Malt Wine,32,300, Northern Av,"(42.348009, -71.035835)",42.34807095,-71.03582339459166,POINT (-71.03582339459166 42.34807095)
"YARD HOUSE BOSTON FENWAY TRIANGLE, LLC",11/26/2013 12:00:00 AM,12/31/2016 12:00:00 AM,CV7AL,CV7 All Alc.,672,126,  Brookline AV,"(42.34533, -71.10015)",42.345451000000004,-71.1001214,POINT (-71.10012140000001 42.345451)
"Tremont Street Burgers,LLC",11/25/2013 12:00:00 AM,12/31/2016 12:00:00 AM,CV7MW,CV7 Malt Wine,82,140,  Tremont ST,"(42.355646, -71.062559)",42.3555609,-71.06237338624665,POINT (-71.06237338624665 42.3555609)
